{"type":"FeatureCollection", "features": [
{"type":"Feature","geometry":{"type":"Polygon","coordinates":[[[126.1702,33.2783],[126.2736,33.1907],[126.3219,33.2348],[126.4146,33.2408],[126.4723,33.2192],[126.6437,33.2618],[126.7474,33.2748],[126.8381,33.3054],[126.9092,33.3879],[126.9383,33.4706],[126.9053,33.4801],[126.7595,33.415],[126.7078,33.4182],[126.5831,33.368],[126.4201,33.3345],[126.3386,33.337],[126.2708,33.2931],[126.1702,33.2783]]]},"properties":{"code":"39_서귀포시","name":"서귀포시"}},
{"type":"Feature","geometry":{"type":"Polygon","coordinates":[[[126.9053,33.4801],[126.7866,33.5629],[126.3876,33.4865],[126.262,33.4314],[126.1693,33.3431],[126.1702,33.2783],[126.2708,33.2931],[126.3386,33.337],[126.4201,33.3345],[126.5831,33.368],[126.7078,33.4182],[126.7595,33.415],[126.9053,33.4801]]]},"properties":{"code":"39_제주시","name":"제주시"}},
{"type":"Feature","geometry":{"type":"Polygon","coordinates":[[[128.1662,35.774],[128.0929,35.8278],[128.0464,35.7492],[128.0525,35.6751],[128,35.6251],[127.962,35.5155],[127.9891,35.4424],[128.0825,35.3671],[128.1916,35.3956],[128.2116,35.4799],[128.2715,35.508],[128.3744,35.5159],[128.3646,35.6089],[128.3082,35.6521],[128.2032,35.6408],[128.2038,35.7198],[128.1662,35.774]]]},"properties":{"code":"38_합천군","name":"합천군"}},
{"type":"Feature","geometry":{"type":"Polygon","coordinates":[[[128.0929,35.8278],[128.0809,35.8359],[128.0143,35.8259],[127.8898,35.9116],[127.8109,35.8506],[127.7477,35.8402],[127.7018,35.7852],[127.6812,35.7663],[127.8793,35.6363],[127.8585,35.5664],[127.9273,35.5123],[127.962,35.5155],[128,35.6251],[128.0525,35.6751],[128.0464,35.7492],[128.0929,35.8278]]]},"properties":{"code":"38_거창군","name":"거창군"}},
{"type":"Feature","geometry":{"type":"Polygon","coordinates":[[[127.6812,35.7663],[127.5875,35.5516],[127.6549,35.4826],[127.6641,35.4136],[127.6124,35.3627],[127.6226,35.3293],[127.6909,35.3161],[127.8167,35.4691],[127.8585,35.5664],[127.8793,35.6363],[127.6812,35.7663]]]},"properties":{"code":"38_함양군","name":"함양군"}},
{"type":"Feature","geometry":{"type":"Polygon","coordinates":[[[127.962,35.5155],[127.9273,35.5123],[127.8585,35.5664],[127.8167,35.4691],[127.6909,35.3161],[127.7072,35.2616],[127.7783,35.2165],[127.8925,35.2234],[127.9693,35.2435],[128.0609,35.3306],[128.1169,35.3278],[128.0825,35.3671],[127.9891,35.4424],[127.962,35.5155]]]},"properties":{"code":"38_산청군","name":"산청군"}},
{"type":"Feature","geometry":{"type":"Polygon","coordinates":[[[127.6226,35.3293],[127.5796,35.3059],[127.6269,35.1814],[127.6967,35.1],[127.7708,35.0474],[127.7799,34.985],[127.7873,34.9371],[127.877,34.9438],[127.9247,35.0109],[127.9068,35.0764],[127.9446,35.1525],[127.8925,35.2234],[127.7783,35.2165],[127.7072,35.2616],[127.6909,35.3161],[127.6226,35.3293]]]},"properties":{"code":"38_하동군","name":"하동군"}},
{"type":"Feature","geometry":{"type":"MultiPolygon","coordinates":[[[[128.0356,34.9164],[127.9636,34.8666],[127.9708,34.8405],[128.0656,34.8272],[128.0356,34.9164]]],[[[127.8976,34.9433],[127.8087,34.8543],[127.8542,34.7661],[127.9513,34.7742],[127.9584,34.7063],[128.0591,34.7423],[128.0627,34.8188],[127.9922,34.8299],[127.9565,34.8021],[127.9005,34.8695],[127.9324,34.9115],[127.8976,34.9433]]]]},"properties":{"code":"38_남해군","name":"남해군"}},
{"type":"Feature","geometry":{"type":"Polygon","coordinates":[[[128.3501,35.1238],[128.2456,35.1238],[128.1933,35.0952],[128.1867,35.0472],[128.1357,34.9761],[128.1216,34.9188],[128.1982,34.9336],[128.3464,34.9342],[128.4452,34.9697],[128.505,35.0112],[128.4246,35.0532],[128.4305,35.0815],[128.3501,35.1238]]]},"properties":{"code":"38_고성군","name":"고성군"}},
{"type":"Feature","geometry":{"type":"Polygon","coordinates":[[[128.3744,35.5159],[128.3818,35.4556],[128.4387,35.3893],[128.5792,35.3761],[128.6584,35.3696],[128.635,35.4434],[128.5733,35.4892],[128.5957,35.5813],[128.5387,35.6206],[128.5286,35.6794],[128.5073,35.636],[128.373,35.6081],[128.3646,35.6089],[128.3744,35.5159]]]},"properties":{"code":"38_창녕군","name":"창녕군"}},
{"type":"Feature","geometry":{"type":"Polygon","coordinates":[[[128.4387,35.3893],[128.425,35.3594],[128.3163,35.3567],[128.2764,35.2543],[128.3697,35.1911],[128.4322,35.1611],[128.4812,35.1846],[128.5096,35.2701],[128.5935,35.2685],[128.5616,35.35],[128.5792,35.3761],[128.4387,35.3893]]]},"properties":{"code":"38_함안군","name":"함안군"}},
{"type":"Feature","geometry":{"type":"Polygon","coordinates":[[[128.0825,35.3671],[128.1169,35.3278],[128.1808,35.2786],[128.2764,35.2543],[128.3163,35.3567],[128.425,35.3594],[128.4387,35.3893],[128.3818,35.4556],[128.3744,35.5159],[128.2715,35.508],[128.2116,35.4799],[128.1916,35.3956],[128.0825,35.3671]]]},"properties":{"code":"38_의령군","name":"의령군"}},
{"type":"Feature","geometry":{"type":"Polygon","coordinates":[[[128.7959,35.154],[128.7434,35.1639],[128.7258,35.2305],[128.7056,35.2908],[128.7644,35.3443],[128.6584,35.3696],[128.5792,35.3761],[128.5616,35.35],[128.5935,35.2685],[128.5096,35.2701],[128.4812,35.1846],[128.4322,35.1611],[128.3697,35.1911],[128.3501,35.1238],[128.4305,35.0815],[128.4246,35.0532],[128.4907,35.1038],[128.5364,35.1092],[128.5798,35.0485],[128.639,35.0647],[128.567,35.1815],[128.5887,35.2065],[128.6217,35.2094],[128.6139,35.1452],[128.7355,35.0885],[128.825,35.0957],[128.7959,35.154]]]},"properties":{"code":"38_창원시","name":"창원시"}},
{"type":"Feature","geometry":{"type":"Polygon","coordinates":[[[128.9968,35.5259],[128.9693,35.4587],[128.9212,35.4487],[128.8748,35.3775],[128.9684,35.3276],[129.0149,35.2702],[129.0528,35.277],[129.1112,35.302],[129.1506,35.3611],[129.2052,35.3848],[129.109,35.4917],[128.9968,35.5259]]]},"properties":{"code":"38_양산시","name":"양산시"}},
{"type":"Feature","geometry":{"type":"Polygon","coordinates":[[[128.6824,35.0369],[128.6235,34.9831],[128.5854,34.9112],[128.5295,34.9207],[128.4743,34.8738],[128.6125,34.698],[128.704,34.8375],[128.7296,34.9439],[128.6824,35.0369]]]},"properties":{"code":"38_거제시","name":"거제시"}},
{"type":"Feature","geometry":{"type":"Polygon","coordinates":[[[128.6584,35.3696],[128.7644,35.3443],[128.8748,35.3775],[128.9212,35.4487],[128.9693,35.4587],[128.9968,35.5259],[129.0056,35.6171],[128.914,35.6349],[128.789,35.5631],[128.6602,35.5947],[128.5957,35.5813],[128.5733,35.4892],[128.635,35.4434],[128.6584,35.3696]]]},"properties":{"code":"38_밀양시","name":"밀양시"}},
{"type":"Feature","geometry":{"type":"Polygon","coordinates":[[[128.7959,35.154],[128.8456,35.1549],[128.8864,35.2106],[128.9999,35.2313],[129.0149,35.2702],[128.9684,35.3276],[128.8748,35.3775],[128.7644,35.3443],[128.7056,35.2908],[128.7258,35.2305],[128.7434,35.1639],[128.7959,35.154]]]},"properties":{"code":"38_김해시","name":"김해시"}},
{"type":"Feature","geometry":{"type":"Polygon","coordinates":[[[127.9247,35.0109],[128.0176,34.9891],[128.0574,34.9254],[128.1216,34.9188],[128.1357,34.9761],[128.1867,35.0472],[128.1756,35.0911],[128.0038,35.1455],[127.9446,35.1525],[127.9068,35.0764],[127.9247,35.0109]]]},"properties":{"code":"38_사천시","name":"사천시"}},
{"type":"Feature","geometry":{"type":"Polygon","coordinates":[[[128.3464,34.9342],[128.3242,34.8811],[128.3962,34.8606],[128.3811,34.8122],[128.4444,34.7997],[128.4584,34.8736],[128.4452,34.9697],[128.3464,34.9342]]]},"properties":{"code":"38_통영시","name":"통영시"}},
{"type":"Feature","geometry":{"type":"Polygon","coordinates":[[[127.8925,35.2234],[127.9446,35.1525],[128.0038,35.1455],[128.1756,35.0911],[128.1867,35.0472],[128.1933,35.0952],[128.2456,35.1238],[128.3501,35.1238],[128.3697,35.1911],[128.2764,35.2543],[128.1808,35.2786],[128.1169,35.3278],[128.0609,35.3306],[127.9693,35.2435],[127.8925,35.2234]]]},"properties":{"code":"38_진주시","name":"진주시"}},
{"type":"Feature","geometry":{"type":"Polygon","coordinates":[[[130.9085,37.5463],[130.7936,37.5105],[130.8658,37.4575],[130.9156,37.4793],[130.9085,37.5463]]]},"properties":{"code":"37_울릉군","name":"울릉군"}},
{"type":"Feature","geometry":{"type":"Polygon","coordinates":[[[129.4261,36.6403],[129.4786,36.6958],[129.46,36.8124],[129.4179,36.8856],[129.4127,37.0212],[129.4295,37.0612],[129.3664,37.1435],[129.2743,37.1141],[129.1877,37.0392],[129.0974,37.0048],[129.09,36.9439],[129.1574,36.875],[129.275,36.8308],[129.314,36.7834],[129.2748,36.742],[129.2712,36.6708],[129.4261,36.6403]]]},"properties":{"code":"37_울진군","name":"울진군"}},
{"type":"Feature","geometry":{"type":"Polygon","coordinates":[[[129.1877,37.0392],[129.0981,37.0976],[129.0671,37.0649],[128.9246,37.0892],[128.912,37.064],[128.8489,37.0493],[128.7873,37.0849],[128.7112,37.0364],[128.6952,36.9709],[128.6396,36.8848],[128.6665,36.8387],[128.7287,36.8633],[128.7456,36.7932],[128.8436,36.8062],[128.8926,36.7707],[128.9924,36.7442],[129.1574,36.875],[129.09,36.9439],[129.0974,37.0048],[129.1877,37.0392]]]},"properties":{"code":"37_봉화군","name":"봉화군"}},
{"type":"Feature","geometry":{"type":"Polygon","coordinates":[[[128.4513,36.846],[128.3688,36.7977],[128.3338,36.7193],[128.3402,36.6549],[128.2689,36.5999],[128.2709,36.5301],[128.3151,36.4535],[128.3475,36.5113],[128.4314,36.519],[128.5262,36.6239],[128.6068,36.6496],[128.5999,36.6999],[128.5636,36.7576],[128.5085,36.7609],[128.4513,36.846]]]},"properties":{"code":"37_예천군","name":"예천군"}},
{"type":"Feature","geometry":{"type":"Polygon","coordinates":[[[128.5653,36.1087],[128.4853,36.1102],[128.4651,36.0667],[128.4007,36.0874],[128.3618,36.0587],[128.2954,36.0881],[128.2913,36.04],[128.35,35.9517],[128.3999,35.9361],[128.3959,35.88],[128.4203,35.9183],[128.5064,35.8876],[128.5585,35.9676],[128.6061,35.9855],[128.6428,36.0076],[128.627,36.0778],[128.5653,36.1087]]]},"properties":{"code":"37_칠곡군","name":"칠곡군"}},
{"type":"Feature","geometry":{"type":"Polygon","coordinates":[[[128.1662,35.774],[128.3457,35.7931],[128.3923,35.8474],[128.3959,35.88],[128.3999,35.9361],[128.35,35.9517],[128.2913,36.04],[128.227,36.052],[128.1696,36.0267],[128.153,35.9634],[128.0588,35.9387],[128.0809,35.8359],[128.0929,35.8278],[128.1662,35.774]]]},"properties":{"code":"37_성주군","name":"성주군"}},
{"type":"Feature","geometry":{"type":"Polygon","coordinates":[[[128.3646,35.6089],[128.373,35.6081],[128.4347,35.7224],[128.3886,35.7603],[128.4225,35.8063],[128.4827,35.8147],[128.4729,35.83],[128.3923,35.8474],[128.3457,35.7931],[128.1662,35.774],[128.2038,35.7198],[128.2032,35.6408],[128.3082,35.6521],[128.3646,35.6089]]]},"properties":{"code":"37_고령군","name":"고령군"}},
{"type":"Feature","geometry":{"type":"Polygon","coordinates":[[[128.5957,35.5813],[128.6602,35.5947],[128.789,35.5631],[128.914,35.6349],[129.0056,35.6171],[129.0496,35.6471],[128.9748,35.7341],[129.0164,35.8432],[128.973,35.8324],[128.9284,35.7525],[128.7932,35.7399],[128.7559,35.6977],[128.6966,35.7409],[128.6253,35.7004],[128.5823,35.7361],[128.5286,35.6794],[128.5387,35.6206],[128.5957,35.5813]]]},"properties":{"code":"37_청도군","name":"청도군"}},
{"type":"Feature","geometry":{"type":"Polygon","coordinates":[[[129.2712,36.6708],[129.235,36.6587],[129.2416,36.5507],[129.2254,36.4966],[129.1544,36.4974],[129.174,36.4313],[129.2291,36.3958],[129.2542,36.318],[129.3064,36.2648],[129.3786,36.2653],[129.3818,36.3301],[129.4387,36.426],[129.443,36.5489],[129.4129,36.5918],[129.4261,36.6403],[129.2712,36.6708]]]},"properties":{"code":"37_영덕군","name":"영덕군"}},
{"type":"Feature","geometry":{"type":"Polygon","coordinates":[[[129.1574,36.875],[128.9924,36.7442],[129.0013,36.5905],[129.1544,36.4974],[129.2254,36.4966],[129.2416,36.5507],[129.235,36.6587],[129.2712,36.6708],[129.2748,36.742],[129.314,36.7834],[129.275,36.8308],[129.1574,36.875]]]},"properties":{"code":"37_영양군","name":"영양군"}},
{"type":"Feature","geometry":{"type":"Polygon","coordinates":[[[129.1544,36.4974],[129.0013,36.5905],[128.9742,36.5282],[128.9863,36.4044],[128.9645,36.3355],[128.8916,36.2945],[128.8847,36.196],[128.8983,36.1705],[128.9898,36.165],[129.0439,36.2182],[129.1348,36.2591],[129.1733,36.2217],[129.2542,36.318],[129.2291,36.3958],[129.174,36.4313],[129.1544,36.4974]]]},"properties":{"code":"37_청송군","name":"청송군"}},
{"type":"Feature","geometry":{"type":"Polygon","coordinates":[[[128.3151,36.4535],[128.3409,36.4042],[128.2863,36.3443],[128.353,36.3482],[128.4135,36.2846],[128.4538,36.324],[128.5977,36.2741],[128.6991,36.1993],[128.8847,36.196],[128.8916,36.2945],[128.88,36.3729],[128.8321,36.4491],[128.7494,36.4863],[128.7089,36.4451],[128.5989,36.4095],[128.554,36.4858],[128.4621,36.4854],[128.4314,36.519],[128.3475,36.5113],[128.3151,36.4535]]]},"properties":{"code":"37_의성군","name":"의성군"}},
{"type":"Feature","geometry":{"type":"Polygon","coordinates":[[[128.6428,36.0076],[128.6975,36.0133],[128.7463,36.0993],[128.8005,36.0821],[128.8938,36.1404],[128.8983,36.1705],[128.8847,36.196],[128.6991,36.1993],[128.5977,36.2741],[128.4538,36.324],[128.4135,36.2846],[128.443,36.2151],[128.5412,36.1907],[128.5653,36.1087],[128.627,36.0778],[128.6428,36.0076]]]},"properties":{"code":"37_군위군","name":"군위군"}},
{"type":"Feature","geometry":{"type":"Polygon","coordinates":[[[128.973,35.8324],[128.9107,35.8285],[128.8615,35.8758],[128.8613,35.9483],[128.7374,35.9899],[128.7654,35.8809],[128.7284,35.8541],[128.6848,35.7869],[128.6966,35.7409],[128.7559,35.6977],[128.7932,35.7399],[128.9284,35.7525],[128.973,35.8324]]]},"properties":{"code":"37_경산시","name":"경산시"}},
{"type":"Feature","geometry":{"type":"Polygon","coordinates":[[[128.3688,36.7977],[128.2441,36.8699],[128.2206,36.8119],[128.1359,36.8293],[128.0617,36.8139],[128.0244,36.723],[127.9338,36.7034],[127.9226,36.6007],[127.9434,36.5484],[128.0583,36.5447],[128.0754,36.6011],[128.128,36.6127],[128.2709,36.5301],[128.2689,36.5999],[128.3402,36.6549],[128.3338,36.7193],[128.3688,36.7977]]]},"properties":{"code":"37_문경시","name":"문경시"}},
{"type":"Feature","geometry":{"type":"Polygon","coordinates":[[[128.2709,36.5301],[128.128,36.6127],[128.0754,36.6011],[128.0583,36.5447],[127.9434,36.5484],[127.9226,36.6007],[127.8006,36.5994],[127.8636,36.5654],[127.9089,36.5049],[127.8828,36.4778],[127.8818,36.3686],[127.8471,36.3133],[127.9514,36.2536],[128.0468,36.2497],[128.1392,36.2542],[128.2863,36.3443],[128.3409,36.4042],[128.3151,36.4535],[128.2709,36.5301]]]},"properties":{"code":"37_상주시","name":"상주시"}},
{"type":"Feature","geometry":{"type":"Polygon","coordinates":[[[129.0164,35.8432],[129.067,35.9379],[129.1371,35.9287],[129.1127,36.0018],[129.1538,36.0519],[129.0434,36.1559],[128.9898,36.165],[128.8983,36.1705],[128.8938,36.1404],[128.8005,36.0821],[128.7463,36.0993],[128.6975,36.0133],[128.7374,35.9899],[128.8613,35.9483],[128.8615,35.8758],[128.9107,35.8285],[128.973,35.8324],[129.0164,35.8432]]]},"properties":{"code":"37_영천시","name":"영천시"}},
{"type":"Feature","geometry":{"type":"Polygon","coordinates":[[[128.7112,37.0364],[128.6545,37.0626],[128.5861,37.041],[128.5468,36.9897],[128.4441,36.925],[128.4513,36.846],[128.5085,36.7609],[128.5636,36.7576],[128.5999,36.6999],[128.6313,36.7165],[128.7297,36.6927],[128.7456,36.7932],[128.7287,36.8633],[128.6665,36.8387],[128.6396,36.8848],[128.6952,36.9709],[128.7112,37.0364]]]},"properties":{"code":"37_영주시","name":"영주시"}},
{"type":"Feature","geometry":{"type":"Polygon","coordinates":[[[128.5653,36.1087],[128.5412,36.1907],[128.443,36.2151],[128.4135,36.2846],[128.353,36.3482],[128.2863,36.3443],[128.1392,36.2542],[128.2384,36.222],[128.294,36.1678],[128.2954,36.0881],[128.3618,36.0587],[128.4007,36.0874],[128.4651,36.0667],[128.4853,36.1102],[128.5653,36.1087]]]},"properties":{"code":"37_구미시","name":"구미시"}},
{"type":"Feature","geometry":{"type":"Polygon","coordinates":[[[128.7456,36.7932],[128.7297,36.6927],[128.6313,36.7165],[128.5999,36.6999],[128.6068,36.6496],[128.5262,36.6239],[128.4314,36.519],[128.4621,36.4854],[128.554,36.4858],[128.5989,36.4095],[128.7089,36.4451],[128.7494,36.4863],[128.8321,36.4491],[128.88,36.3729],[128.8916,36.2945],[128.9645,36.3355],[128.9863,36.4044],[128.9742,36.5282],[129.0013,36.5905],[128.9924,36.7442],[128.8926,36.7707],[128.8436,36.8062],[128.7456,36.7932]]]},"properties":{"code":"37_안동시","name":"안동시"}},
{"type":"Feature","geometry":{"type":"Polygon","coordinates":[[[128.0809,35.8359],[128.0588,35.9387],[128.153,35.9634],[128.1696,36.0267],[128.227,36.052],[128.2913,36.04],[128.2954,36.0881],[128.294,36.1678],[128.2384,36.222],[128.1392,36.2542],[128.0468,36.2497],[128.0526,36.2123],[127.9778,36.1852],[127.9979,36.15],[127.9636,36.0654],[127.8791,36.0195],[127.9108,35.9382],[127.8898,35.9116],[128.0143,35.8259],[128.0809,35.8359]]]},"properties":{"code":"37_김천시","name":"김천시"}},
{"type":"Feature","geometry":{"type":"Polygon","coordinates":[[[129.0496,35.6471],[129.0911,35.6991],[129.2095,35.7185],[129.2981,35.6413],[129.3563,35.6767],[129.4523,35.6479],[129.478,35.6832],[129.5206,35.8389],[129.3573,35.8698],[129.335,35.8987],[129.2889,36.0595],[129.2002,36.0377],[129.1538,36.0519],[129.1127,36.0018],[129.1371,35.9287],[129.067,35.9379],[129.0164,35.8432],[128.9748,35.7341],[129.0496,35.6471]]]},"properties":{"code":"37_경주시","name":"경주시"}},
{"type":"Feature","geometry":{"type":"Polygon","coordinates":[[[129.2542,36.318],[129.1733,36.2217],[129.1348,36.2591],[129.0439,36.2182],[128.9898,36.165],[129.0434,36.1559],[129.1538,36.0519],[129.2002,36.0377],[129.2889,36.0595],[129.335,35.8987],[129.3573,35.8698],[129.5206,35.8389],[129.5212,35.9242],[129.5857,36.0168],[129.5719,36.0738],[129.4542,35.9887],[129.376,36.0466],[129.443,36.0973],[129.4,36.1319],[129.3786,36.2653],[129.3064,36.2648],[129.2542,36.318]]]},"properties":{"code":"37_포항시","name":"포항시"}},
{"type":"Feature","geometry":{"type":"MultiPolygon","coordinates":[[[[125.9705,34.7268],[125.9172,34.7072],[125.9681,34.6532],[126.0167,34.7073],[125.9705,34.7268]]],[[[126.0832,34.7758],[126.0759,34.705],[126.1475,34.6832],[126.1983,34.7163],[126.1649,34.7552],[126.0832,34.7758]]],[[[126.0646,34.9326],[126.0156,34.9105],[125.9991,34.8618],[126.0873,34.8605],[126.0646,34.9326]]],[[[126.2497,35.094],[126.1926,35.1097],[126.1631,35.0639],[126.2642,35.0506],[126.2497,35.094]]],[[[126.164,35.1405],[126.0504,35.0995],[126.1206,35.0582],[126.164,35.1405]]]]},"properties":{"code":"36_신안군","name":"신안군"}},
{"type":"Feature","geometry":{"type":"Polygon","coordinates":[[[126.2528,34.5862],[126.263,34.545],[126.1471,34.4727],[126.091,34.4154],[126.1367,34.3566],[126.2033,34.3551],[126.3675,34.4397],[126.3842,34.5015],[126.3059,34.5679],[126.2528,34.5862]]]},"properties":{"code":"36_진도군","name":"진도군"}},
{"type":"Feature","geometry":{"type":"MultiPolygon","coordinates":[[[[126.6865,34.3993],[126.6407,34.379],[126.6963,34.2895],[126.762,34.2892],[126.7312,34.3591],[126.6865,34.3993]]],[[[126.8368,34.4389],[126.7904,34.4302],[126.7769,34.3784],[126.8683,34.3869],[126.8368,34.4389]]]]},"properties":{"code":"36_완도군","name":"완도군"}},
{"type":"Feature","geometry":{"type":"Polygon","coordinates":[[[126.8708,35.4584],[126.7746,35.4653],[126.733,35.3733],[126.6468,35.3168],[126.5939,35.2289],[126.6552,35.1893],[126.7576,35.2313],[126.8385,35.226],[126.8816,35.2484],[126.8664,35.3196],[126.9217,35.3989],[126.8708,35.4584]]]},"properties":{"code":"36_장성군","name":"장성군"}},
{"type":"Feature","geometry":{"type":"Polygon","coordinates":[[[126.6468,35.3168],[126.5223,35.3467],[126.4496,35.4268],[126.4078,35.4064],[126.3604,35.2863],[126.2995,35.2243],[126.3707,35.162],[126.4835,35.1879],[126.5355,35.1792],[126.5939,35.2289],[126.6468,35.3168]]]},"properties":{"code":"36_영광군","name":"영광군"}},
{"type":"Feature","geometry":{"type":"Polygon","coordinates":[[[126.5939,35.2289],[126.5355,35.1792],[126.4835,35.1879],[126.3707,35.162],[126.4591,35.0712],[126.4716,35.018],[126.5428,34.9721],[126.6007,35.0097],[126.5898,35.0513],[126.6573,35.112],[126.6552,35.1893],[126.5939,35.2289]]]},"properties":{"code":"36_함평군","name":"함평군"}},
{"type":"Feature","geometry":{"type":"Polygon","coordinates":[[[126.2642,35.0506],[126.33,35.0854],[126.3536,35.0357],[126.335,34.9677],[126.4141,34.8408],[126.4609,34.7902],[126.4966,34.7663],[126.5552,34.8601],[126.5175,34.9112],[126.5428,34.9721],[126.4716,35.018],[126.4591,35.0712],[126.3371,35.0886],[126.3268,35.1311],[126.2594,35.139],[126.2497,35.094],[126.2642,35.0506]]]},"properties":{"code":"36_무안군","name":"무안군"}},
{"type":"Feature","geometry":{"type":"Polygon","coordinates":[[[126.4609,34.7902],[126.4467,34.7893],[126.3812,34.7639],[126.391,34.7279],[126.3928,34.7271],[126.5008,34.7322],[126.5668,34.678],[126.6721,34.6879],[126.6599,34.731],[126.7047,34.7629],[126.7979,34.7774],[126.8099,34.8265],[126.8608,34.8661],[126.826,34.868],[126.768,34.8965],[126.6758,34.8845],[126.6069,34.925],[126.5552,34.8601],[126.4966,34.7663],[126.4609,34.7902]]]},"properties":{"code":"36_영암군","name":"영암군"}},
{"type":"Feature","geometry":{"type":"Polygon","coordinates":[[[126.5668,34.678],[126.4735,34.656],[126.4547,34.7032],[126.3928,34.7271],[126.391,34.7279],[126.2881,34.7555],[126.257,34.661],[126.281,34.5933],[126.4621,34.5289],[126.4601,34.4465],[126.5596,34.3181],[126.6055,34.321],[126.6199,34.3988],[126.7369,34.4515],[126.6862,34.4665],[126.6971,34.5607],[126.6739,34.5889],[126.7077,34.6786],[126.6721,34.6879],[126.5668,34.678]]]},"properties":{"code":"36_해남군","name":"해남군"}},
{"type":"Feature","geometry":{"type":"Polygon","coordinates":[[[126.6721,34.6879],[126.7077,34.6786],[126.6739,34.5889],[126.6971,34.5607],[126.6862,34.4665],[126.7369,34.4515],[126.8472,34.4482],[126.8783,34.5488],[126.8521,34.7193],[126.7979,34.7774],[126.7047,34.7629],[126.6599,34.731],[126.6721,34.6879]]]},"properties":{"code":"36_강진군","name":"강진군"}},
{"type":"Feature","geometry":{"type":"Polygon","coordinates":[[[126.7979,34.7774],[126.8521,34.7193],[126.8783,34.5488],[126.8472,34.4482],[126.939,34.4448],[126.9787,34.4842],[126.9965,34.6115],[127.0485,34.6411],[126.9741,34.7029],[127.0174,34.7332],[127.0395,34.8349],[126.9409,34.8259],[126.8608,34.8661],[126.8099,34.8265],[126.7979,34.7774]]]},"properties":{"code":"36_장흥군","name":"장흥군"}},
{"type":"Feature","geometry":{"type":"Polygon","coordinates":[[[126.8608,34.8661],[126.9409,34.8259],[127.0395,34.8349],[127.0913,34.8708],[127.0833,34.9236],[127.177,34.9748],[127.1998,35.1294],[127.1868,35.2111],[127.119,35.1916],[127.0125,35.1307],[126.9996,35.1115],[126.9213,35.0885],[126.8941,35.0751],[126.8707,35.0065],[126.8723,34.8875],[126.826,34.868],[126.8608,34.8661]]]},"properties":{"code":"36_화순군","name":"화순군"}},
{"type":"Feature","geometry":{"type":"Polygon","coordinates":[[[127.0485,34.6411],[127.1429,34.6909],[127.1826,34.6891],[127.2461,34.7718],[127.3548,34.8222],[127.3932,34.7869],[127.4191,34.8294],[127.2343,34.9332],[127.177,34.9748],[127.0833,34.9236],[127.0913,34.8708],[127.0395,34.8349],[127.0174,34.7332],[126.9741,34.7029],[127.0485,34.6411]]]},"properties":{"code":"36_보성군","name":"보성군"}},
{"type":"Feature","geometry":{"type":"MultiPolygon","coordinates":[[[[127.2252,34.4899],[127.1003,34.4631],[127.1269,34.4283],[127.2151,34.4293],[127.2252,34.4899]]],[[[127.2461,34.7718],[127.3358,34.7051],[127.1745,34.6239],[127.1153,34.5562],[127.125,34.5257],[127.2592,34.516],[127.3324,34.4704],[127.403,34.5011],[127.4467,34.5735],[127.5083,34.5888],[127.4797,34.6688],[127.3929,34.7083],[127.3932,34.7869],[127.3548,34.8222],[127.2461,34.7718]]]]},"properties":{"code":"36_고흥군","name":"고흥군"}},
{"type":"Feature","geometry":{"type":"Polygon","coordinates":[[[127.5796,35.3059],[127.5035,35.3558],[127.4334,35.3565],[127.3866,35.3002],[127.4085,35.186],[127.5359,35.1035],[127.6049,35.1151],[127.6269,35.1814],[127.5796,35.3059]]]},"properties":{"code":"36_구례군","name":"구례군"}},
{"type":"Feature","geometry":{"type":"Polygon","coordinates":[[[127.1998,35.1294],[127.3226,35.0668],[127.4136,35.1432],[127.4085,35.186],[127.3866,35.3002],[127.3075,35.3001],[127.1882,35.3331],[127.0988,35.2987],[127.0844,35.2454],[127.119,35.1916],[127.1868,35.2111],[127.1998,35.1294]]]},"properties":{"code":"36_곡성군","name":"곡성군"}},
{"type":"Feature","geometry":{"type":"Polygon","coordinates":[[[126.8816,35.2484],[126.9345,35.2374],[127.0125,35.1307],[127.119,35.1916],[127.0844,35.2454],[127.0988,35.2987],[127.0724,35.3629],[127.0326,35.3868],[127.037,35.4625],[126.9217,35.3989],[126.8664,35.3196],[126.8816,35.2484]]]},"properties":{"code":"36_담양군","name":"담양군"}},
{"type":"Feature","geometry":{"type":"Polygon","coordinates":[[[127.6269,35.1814],[127.6049,35.1151],[127.5359,35.1035],[127.5597,35.0329],[127.5497,34.9571],[127.5972,34.8934],[127.6077,34.9003],[127.6421,34.8833],[127.7799,34.985],[127.7708,35.0474],[127.6967,35.1],[127.6269,35.1814]]]},"properties":{"code":"36_광양시","name":"광양시"}},
{"type":"Feature","geometry":{"type":"Polygon","coordinates":[[[126.5428,34.9721],[126.5175,34.9112],[126.5552,34.8601],[126.6069,34.925],[126.6758,34.8845],[126.768,34.8965],[126.826,34.868],[126.8723,34.8875],[126.8707,35.0065],[126.8941,35.0751],[126.821,35.0494],[126.7729,35.0669],[126.7423,35.1037],[126.6573,35.112],[126.5898,35.0513],[126.6007,35.0097],[126.5428,34.9721]]]},"properties":{"code":"36_나주시","name":"나주시"}},
{"type":"Feature","geometry":{"type":"Polygon","coordinates":[[[127.177,34.9748],[127.2343,34.9332],[127.4191,34.8294],[127.5443,34.8402],[127.5972,34.8934],[127.5497,34.9571],[127.5597,35.0329],[127.5359,35.1035],[127.4085,35.186],[127.4136,35.1432],[127.3226,35.0668],[127.1998,35.1294],[127.177,34.9748]]]},"properties":{"code":"36_순천시","name":"순천시"}},
{"type":"Feature","geometry":{"type":"MultiPolygon","coordinates":[[[[127.7508,34.7307],[127.7604,34.6863],[127.7124,34.6199],[127.7877,34.5822],[127.8025,34.6271],[127.7508,34.7307]]],[[[127.5972,34.8934],[127.5443,34.8402],[127.5816,34.7588],[127.5536,34.6594],[127.6226,34.6365],[127.66,34.7524],[127.7062,34.7172],[127.7519,34.7329],[127.7772,34.8567],[127.7008,34.8563],[127.6451,34.8273],[127.6077,34.9003],[127.5972,34.8934]]]]},"properties":{"code":"36_여수시","name":"여수시"}},
{"type":"Feature","geometry":{"type":"Polygon","coordinates":[[[126.4141,34.8408],[126.4467,34.7893],[126.4609,34.7902],[126.4141,34.8408]]]},"properties":{"code":"36_목포시","name":"목포시"}},
{"type":"Feature","geometry":{"type":"Polygon","coordinates":[[[126.7793,35.7546],[126.7013,35.7964],[126.6247,35.7857],[126.6289,35.7455],[126.5726,35.6921],[126.4671,35.631],[126.5301,35.5763],[126.6381,35.5904],[126.6743,35.5684],[126.7238,35.57],[126.7273,35.6409],[126.8273,35.7113],[126.7793,35.7546]]]},"properties":{"code":"35_부안군","name":"부안군"}},
{"type":"Feature","geometry":{"type":"Polygon","coordinates":[[[126.7746,35.4653],[126.7577,35.5707],[126.7238,35.57],[126.6743,35.5684],[126.6051,35.5396],[126.4855,35.5163],[126.4496,35.4268],[126.5223,35.3467],[126.6468,35.3168],[126.733,35.3733],[126.7746,35.4653]]]},"properties":{"code":"35_고창군","name":"고창군"}},
{"type":"Feature","geometry":{"type":"Polygon","coordinates":[[[126.9217,35.3989],[127.037,35.4625],[127.0326,35.3868],[127.0724,35.3629],[127.0988,35.2987],[127.1882,35.3331],[127.2288,35.396],[127.2959,35.4268],[127.3108,35.4746],[127.2062,35.487],[127.1464,35.4587],[127.09,35.505],[126.9811,35.5526],[126.9377,35.4785],[126.8708,35.4584],[126.9217,35.3989]]]},"properties":{"code":"35_순창군","name":"순창군"}},
{"type":"Feature","geometry":{"type":"Polygon","coordinates":[[[127.3108,35.4746],[127.3544,35.4943],[127.3656,35.5552],[127.3765,35.6046],[127.4381,35.6188],[127.377,35.6611],[127.2943,35.6888],[127.2729,35.775],[127.1802,35.7352],[127.1272,35.6866],[127.0957,35.6184],[127.09,35.505],[127.1464,35.4587],[127.2062,35.487],[127.3108,35.4746]]]},"properties":{"code":"35_임실군","name":"임실군"}},
{"type":"Feature","geometry":{"type":"Polygon","coordinates":[[[127.7018,35.7852],[127.6219,35.8367],[127.4781,35.7144],[127.4381,35.6188],[127.3765,35.6046],[127.3656,35.5552],[127.4692,35.5432],[127.5449,35.4654],[127.5875,35.5516],[127.6812,35.7663],[127.7018,35.7852]]]},"properties":{"code":"35_장수군","name":"장수군"}},
{"type":"Feature","geometry":{"type":"Polygon","coordinates":[[[127.8898,35.9116],[127.9108,35.9382],[127.8791,36.0195],[127.79,36.0113],[127.6399,36.0654],[127.6202,36.0046],[127.5401,36.03],[127.5269,35.9826],[127.6219,35.8367],[127.7018,35.7852],[127.7477,35.8402],[127.8109,35.8506],[127.8898,35.9116]]]},"properties":{"code":"35_무주군","name":"무주군"}},
{"type":"Feature","geometry":{"type":"Polygon","coordinates":[[[127.4381,35.6188],[127.4781,35.7144],[127.6219,35.8367],[127.5269,35.9826],[127.4581,35.9808],[127.38,36.0198],[127.3459,35.9775],[127.354,35.913],[127.2729,35.775],[127.2943,35.6888],[127.377,35.6611],[127.4381,35.6188]]]},"properties":{"code":"35_진안군","name":"진안군"}},
{"type":"Feature","geometry":{"type":"MultiPolygon","coordinates":[[[[127.068,35.7878],[127.06,35.8352],[127.0076,35.859],[126.9967,35.8263],[127.068,35.7878]]],[[[127.2729,35.775],[127.354,35.913],[127.3459,35.9775],[127.38,36.0198],[127.3571,36.1053],[127.3251,36.1271],[127.2484,36.0918],[127.132,36.0627],[127.0945,35.9282],[127.0393,35.8905],[127.1294,35.8985],[127.2194,35.7986],[127.0873,35.7254],[127.0662,35.6747],[127.0957,35.6184],[127.1272,35.6866],[127.1802,35.7352],[127.2729,35.775]]]]},"properties":{"code":"35_완주군","name":"완주군"}},
{"type":"Feature","geometry":{"type":"Polygon","coordinates":[[[126.8273,35.7113],[126.8972,35.7503],[127.0662,35.6747],[127.0873,35.7254],[127.068,35.7878],[126.9967,35.8263],[127.0076,35.859],[127,35.8807],[126.9393,35.9097],[126.8557,35.9138],[126.8394,35.9086],[126.79,35.8619],[126.6942,35.8487],[126.7789,35.7985],[126.7793,35.7546],[126.8273,35.7113]]]},"properties":{"code":"35_김제시","name":"김제시"}},
{"type":"Feature","geometry":{"type":"Polygon","coordinates":[[[127.5875,35.5516],[127.5449,35.4654],[127.4692,35.5432],[127.3656,35.5552],[127.3544,35.4943],[127.3108,35.4746],[127.2959,35.4268],[127.2288,35.396],[127.1882,35.3331],[127.3075,35.3001],[127.3866,35.3002],[127.4334,35.3565],[127.5035,35.3558],[127.5796,35.3059],[127.6226,35.3293],[127.6124,35.3627],[127.6641,35.4136],[127.6549,35.4826],[127.5875,35.5516]]]},"properties":{"code":"35_남원시","name":"남원시"}},
{"type":"Feature","geometry":{"type":"Polygon","coordinates":[[[126.8708,35.4584],[126.9377,35.4785],[126.9811,35.5526],[127.09,35.505],[127.0957,35.6184],[127.0662,35.6747],[126.8972,35.7503],[126.8273,35.7113],[126.7273,35.6409],[126.7238,35.57],[126.7577,35.5707],[126.7746,35.4653],[126.8708,35.4584]]]},"properties":{"code":"35_정읍시","name":"정읍시"}},
{"type":"Feature","geometry":{"type":"Polygon","coordinates":[[[127.132,36.0627],[127.0635,36.0905],[127.0055,36.1462],[126.8944,36.1378],[126.8722,36.0663],[126.8657,36.0576],[126.9115,35.9789],[126.8557,35.9138],[126.9393,35.9097],[127,35.8807],[127.0393,35.8905],[127.0945,35.9282],[127.132,36.0627]]]},"properties":{"code":"35_익산시","name":"익산시"}},
{"type":"Feature","geometry":{"type":"Polygon","coordinates":[[[126.8557,35.9138],[126.9115,35.9789],[126.8657,36.0576],[126.7507,36.0206],[126.7369,35.9979],[126.6448,35.9759],[126.6172,35.8831],[126.7721,35.886],[126.8394,35.9086],[126.8557,35.9138]]]},"properties":{"code":"35_군산시","name":"군산시"}},
{"type":"Feature","geometry":{"type":"Polygon","coordinates":[[[127.0076,35.859],[127.06,35.8352],[127.068,35.7878],[127.0873,35.7254],[127.2194,35.7986],[127.1294,35.8985],[127.0393,35.8905],[127,35.8807],[127.0076,35.859]]]},"properties":{"code":"35_전주시","name":"전주시"}},
{"type":"Feature","geometry":{"type":"MultiPolygon","coordinates":[[[[126.3627,36.6099],[126.3124,36.5823],[126.3397,36.4357],[126.4374,36.4156],[126.3987,36.5163],[126.4007,36.5794],[126.3627,36.6099]]],[[[126.3365,36.8121],[126.283,36.8151],[126.3226,36.8892],[126.2951,36.9268],[126.2107,36.8975],[126.1442,36.7862],[126.1994,36.6716],[126.2653,36.671],[126.3224,36.5938],[126.3576,36.6235],[126.3481,36.7182],[126.3365,36.8121]]]]},"properties":{"code":"34_태안군","name":"태안군"}},
{"type":"Feature","geometry":{"type":"Polygon","coordinates":[[[126.8354,36.7804],[126.7816,36.751],[126.7272,36.7953],[126.6556,36.7721],[126.6053,36.7184],[126.5913,36.6608],[126.6304,36.6467],[126.7474,36.6679],[126.7752,36.5314],[126.8269,36.5256],[126.9011,36.556],[126.9699,36.6765],[126.9042,36.6993],[126.8354,36.7804]]]},"properties":{"code":"34_예산군","name":"예산군"}},
{"type":"Feature","geometry":{"type":"Polygon","coordinates":[[[126.5913,36.6608],[126.5128,36.6279],[126.468,36.6411],[126.4552,36.5509],[126.491,36.5148],[126.5922,36.506],[126.6752,36.4593],[126.7383,36.4688],[126.7752,36.5314],[126.7474,36.6679],[126.6304,36.6467],[126.5913,36.6608]]]},"properties":{"code":"34_홍성군","name":"홍성군"}},
{"type":"Feature","geometry":{"type":"Polygon","coordinates":[[[126.7752,36.5314],[126.7383,36.4688],[126.6752,36.4593],[126.7268,36.3718],[126.8684,36.32],[126.9778,36.3326],[127.0301,36.4009],[126.9969,36.4585],[126.9324,36.4521],[126.8865,36.5099],[126.9011,36.556],[126.8269,36.5256],[126.7752,36.5314]]]},"properties":{"code":"34_청양군","name":"청양군"}},
{"type":"Feature","geometry":{"type":"Polygon","coordinates":[[[126.8722,36.0663],[126.7817,36.1806],[126.6944,36.1874],[126.568,36.185],[126.5786,36.1355],[126.6354,36.09],[126.6627,36.008],[126.7369,35.9979],[126.7507,36.0206],[126.8657,36.0576],[126.8722,36.0663]]]},"properties":{"code":"34_서천군","name":"서천군"}},
{"type":"Feature","geometry":{"type":"Polygon","coordinates":[[[127.0055,36.1462],[126.9857,36.1893],[127.0679,36.2741],[126.9778,36.3326],[126.8684,36.32],[126.7268,36.3718],[126.6825,36.3104],[126.7364,36.2355],[126.6944,36.1874],[126.7817,36.1806],[126.8722,36.0663],[126.8944,36.1378],[127.0055,36.1462]]]},"properties":{"code":"34_부여군","name":"부여군"}},
{"type":"Feature","geometry":{"type":"Polygon","coordinates":[[[127.6399,36.0654],[127.5923,36.1309],[127.6003,36.1814],[127.5999,36.2145],[127.4949,36.2351],[127.4245,36.2053],[127.3745,36.2692],[127.3335,36.1814],[127.3251,36.1271],[127.3571,36.1053],[127.38,36.0198],[127.4581,35.9808],[127.5269,35.9826],[127.5401,36.03],[127.6202,36.0046],[127.6399,36.0654]]]},"properties":{"code":"34_금산군","name":"금산군"}},
{"type":"Feature","geometry":{"type":"Polygon","coordinates":[[[126.8354,36.7804],[126.8492,36.8599],[126.7827,36.9736],[126.6416,36.9952],[126.5004,37.0624],[126.4788,36.9025],[126.5281,36.8239],[126.6329,36.8103],[126.6556,36.7721],[126.7272,36.7953],[126.7816,36.751],[126.8354,36.7804]]]},"properties":{"code":"34_당진시","name":"당진시"}},
{"type":"Feature","geometry":{"type":"Polygon","coordinates":[[[127.2619,36.3243],[127.1979,36.3311],[127.1979,36.2723],[127.2802,36.2411],[127.2939,36.2612],[127.2619,36.3243]]]},"properties":{"code":"34_계룡시","name":"계룡시"}},
{"type":"Feature","geometry":{"type":"Polygon","coordinates":[[[127.3251,36.1271],[127.3335,36.1814],[127.2802,36.2411],[127.1979,36.2723],[127.1979,36.3311],[127.0679,36.2741],[126.9857,36.1893],[127.0055,36.1462],[127.0635,36.0905],[127.132,36.0627],[127.2484,36.0918],[127.3251,36.1271]]]},"properties":{"code":"34_논산시","name":"논산시"}},
{"type":"Feature","geometry":{"type":"Polygon","coordinates":[[[126.3481,36.7182],[126.3665,36.624],[126.4259,36.5974],[126.468,36.6411],[126.5128,36.6279],[126.5913,36.6608],[126.6053,36.7184],[126.6556,36.7721],[126.6329,36.8103],[126.5281,36.8239],[126.4788,36.9025],[126.4526,37.0032],[126.3774,37.0091],[126.336,36.9569],[126.4116,36.9046],[126.3658,36.8739],[126.3365,36.8121],[126.3481,36.7182]]]},"properties":{"code":"34_서산시","name":"서산시"}},
{"type":"Feature","geometry":{"type":"Polygon","coordinates":[[[126.9699,36.6765],[127.0116,36.6532],[127.0811,36.7071],[127.1154,36.7818],[127.0962,36.9097],[127.076,36.9355],[126.9975,36.9326],[126.9108,36.9021],[126.8492,36.8599],[126.8354,36.7804],[126.9042,36.6993],[126.9699,36.6765]]]},"properties":{"code":"34_아산시","name":"아산시"}},
{"type":"Feature","geometry":{"type":"Polygon","coordinates":[[[126.491,36.5148],[126.4755,36.5003],[126.5112,36.3773],[126.5048,36.3218],[126.5489,36.2606],[126.568,36.185],[126.6944,36.1874],[126.7364,36.2355],[126.6825,36.3104],[126.7268,36.3718],[126.6752,36.4593],[126.5922,36.506],[126.491,36.5148]]]},"properties":{"code":"34_보령시","name":"보령시"}},
{"type":"Feature","geometry":{"type":"Polygon","coordinates":[[[126.9011,36.556],[126.8865,36.5099],[126.9324,36.4521],[126.9969,36.4585],[127.0301,36.4009],[126.9778,36.3326],[127.0679,36.2741],[127.1979,36.3311],[127.2619,36.3243],[127.2844,36.4116],[127.2035,36.439],[127.1729,36.5089],[127.1959,36.5619],[127.1527,36.6175],[127.0116,36.6532],[126.9699,36.6765],[126.9011,36.556]]]},"properties":{"code":"34_공주시","name":"공주시"}},
{"type":"Feature","geometry":{"type":"Polygon","coordinates":[[[127.076,36.9355],[127.0962,36.9097],[127.1154,36.7818],[127.0811,36.7071],[127.0116,36.6532],[127.1527,36.6175],[127.1655,36.7307],[127.2877,36.688],[127.3385,36.7498],[127.4217,36.7547],[127.4038,36.7924],[127.2927,36.8894],[127.2919,36.8909],[127.204,36.9492],[127.1216,36.9663],[127.076,36.9355]]]},"properties":{"code":"34_천안시","name":"천안시"}},
{"type":"Feature","geometry":{"type":"Polygon","coordinates":[[[127.64,36.8444],[127.5801,36.8504],[127.5664,36.7767],[127.625,36.702],[127.6671,36.7269],[127.6232,36.7853],[127.64,36.8444]]]},"properties":{"code":"33_증평군","name":"증평군"}},
{"type":"Feature","geometry":{"type":"Polygon","coordinates":[[[128.4513,36.846],[128.4441,36.925],[128.5468,36.9897],[128.5861,37.041],[128.6545,37.0626],[128.5402,37.0872],[128.5146,37.1108],[128.4258,37.1096],[128.4032,37.144],[128.3005,37.1313],[128.2278,37.0594],[128.266,36.9467],[128.2441,36.8699],[128.3688,36.7977],[128.4513,36.846]]]},"properties":{"code":"33_단양군","name":"단양군"}},
{"type":"Feature","geometry":{"type":"Polygon","coordinates":[[[127.64,36.8444],[127.6936,36.873],[127.7901,36.878],[127.7909,36.9344],[127.7185,36.9556],[127.6584,37.0131],[127.7228,37.108],[127.6976,37.1376],[127.6309,37.1509],[127.6333,37.0934],[127.5683,37.0602],[127.4921,37.05],[127.4488,37.0082],[127.4511,36.946],[127.522,36.9203],[127.5801,36.8504],[127.64,36.8444]]]},"properties":{"code":"33_음성군","name":"음성군"}},
{"type":"Feature","geometry":{"type":"Polygon","coordinates":[[[128.0617,36.8139],[127.9855,36.8128],[127.9376,36.8853],[127.8661,36.8935],[127.7909,36.9344],[127.7901,36.878],[127.6936,36.873],[127.64,36.8444],[127.6232,36.7853],[127.6671,36.7269],[127.729,36.6797],[127.7142,36.648],[127.772,36.6012],[127.8006,36.5994],[127.9226,36.6007],[127.9338,36.7034],[128.0244,36.723],[128.0617,36.8139]]]},"properties":{"code":"33_괴산군","name":"괴산군"}},
{"type":"Feature","geometry":{"type":"Polygon","coordinates":[[[127.2919,36.8909],[127.2927,36.8894],[127.4038,36.7924],[127.4217,36.7547],[127.5664,36.7767],[127.5801,36.8504],[127.522,36.9203],[127.4511,36.946],[127.4488,37.0082],[127.404,36.9649],[127.3113,36.9262],[127.2919,36.8909]]]},"properties":{"code":"33_진천군","name":"진천군"}},
{"type":"Feature","geometry":{"type":"Polygon","coordinates":[[[127.8471,36.3133],[127.7154,36.2648],[127.6569,36.1743],[127.6003,36.1814],[127.5923,36.1309],[127.6399,36.0654],[127.79,36.0113],[127.8791,36.0195],[127.9636,36.0654],[127.9979,36.15],[127.9778,36.1852],[128.0526,36.2123],[128.0468,36.2497],[127.9514,36.2536],[127.8471,36.3133]]]},"properties":{"code":"33_영동군","name":"영동군"}},
{"type":"Feature","geometry":{"type":"Polygon","coordinates":[[[127.8818,36.3686],[127.7239,36.3911],[127.6459,36.4421],[127.6125,36.4001],[127.5563,36.3918],[127.5034,36.3304],[127.4949,36.2351],[127.5999,36.2145],[127.6003,36.1814],[127.6569,36.1743],[127.7154,36.2648],[127.8471,36.3133],[127.8818,36.3686]]]},"properties":{"code":"33_옥천군","name":"옥천군"}},
{"type":"Feature","geometry":{"type":"Polygon","coordinates":[[[127.8006,36.5994],[127.772,36.6012],[127.6457,36.6024],[127.5178,36.4194],[127.5563,36.3918],[127.6125,36.4001],[127.6459,36.4421],[127.7239,36.3911],[127.8818,36.3686],[127.8828,36.4778],[127.9089,36.5049],[127.8636,36.5654],[127.8006,36.5994]]]},"properties":{"code":"33_보은군","name":"보은군"}},
{"type":"Feature","geometry":{"type":"Polygon","coordinates":[[[127.2877,36.688],[127.2813,36.6322],[127.3102,36.5806],[127.3747,36.5572],[127.3978,36.4887],[127.4047,36.4528],[127.4913,36.4298],[127.5178,36.4194],[127.6457,36.6024],[127.772,36.6012],[127.7142,36.648],[127.729,36.6797],[127.6671,36.7269],[127.625,36.702],[127.5664,36.7767],[127.4217,36.7547],[127.3385,36.7498],[127.2877,36.688]],[[127.4488,36.6824],[127.5556,36.6598],[127.5489,36.6027],[127.5023,36.5845],[127.3901,36.6216],[127.4488,36.6824]]]},"properties":{"code":"33_청원군","name":"청원군"}},
{"type":"Feature","geometry":{"type":"Polygon","coordinates":[[[128.2441,36.8699],[128.266,36.9467],[128.2278,37.0594],[128.3005,37.1313],[128.2712,37.2052],[128.2034,37.246],[128.0417,37.186],[127.9872,37.2553],[127.9235,37.2229],[127.9284,37.1623],[127.97,37.1537],[128.0873,37.0728],[128.0908,36.9498],[128.0384,36.8527],[128.1359,36.8293],[128.2206,36.8119],[128.2441,36.8699]]]},"properties":{"code":"33_제천시","name":"제천시"}},
{"type":"Feature","geometry":{"type":"Polygon","coordinates":[[[128.1359,36.8293],[128.0384,36.8527],[128.0908,36.9498],[128.0873,37.0728],[127.97,37.1537],[127.9284,37.1623],[127.7914,37.1417],[127.7501,37.2138],[127.6976,37.1376],[127.7228,37.108],[127.6584,37.0131],[127.7185,36.9556],[127.7909,36.9344],[127.8661,36.8935],[127.9376,36.8853],[127.9855,36.8128],[128.0617,36.8139],[128.1359,36.8293]]]},"properties":{"code":"33_충주시","name":"충주시"}},
{"type":"Feature","geometry":{"type":"Polygon","coordinates":[[[127.4488,36.6824],[127.3901,36.6216],[127.5023,36.5845],[127.5489,36.6027],[127.5556,36.6598],[127.4488,36.6824]]]},"properties":{"code":"33_청주시","name":"청주시"}},
{"type":"Feature","geometry":{"type":"Polygon","coordinates":[[[128.6113,38.1583],[128.4676,38.1167],[128.5144,38.0022],[128.4656,37.9328],[128.484,37.8903],[128.5901,37.8591],[128.8123,37.9156],[128.6802,38.0631],[128.6113,38.1583]]]},"properties":{"code":"32_양양군","name":"양양군"}},
{"type":"Feature","geometry":{"type":"Polygon","coordinates":[[[128.2062,38.375],[128.3213,38.2634],[128.4441,38.1996],[128.4888,38.1865],[128.5871,38.2284],[128.518,38.369],[128.4604,38.4273],[128.3994,38.5645],[128.3235,38.6069],[128.3037,38.4693],[128.2062,38.375]]]},"properties":{"code":"32_고성군","name":"고성군"}},
{"type":"Feature","geometry":{"type":"Polygon","coordinates":[[[128.4676,38.1167],[128.4221,38.1748],[128.4441,38.1996],[128.3213,38.2634],[128.2062,38.375],[128.1254,38.338],[128.1671,38.3116],[128.0903,38.1353],[128.1202,38.0451],[128.0314,38.0118],[127.9854,37.9878],[127.9956,37.9399],[128.0822,37.9004],[128.1756,37.8822],[128.2111,37.8096],[128.2959,37.8671],[128.3685,37.8444],[128.484,37.8903],[128.4656,37.9328],[128.5144,38.0022],[128.4676,38.1167]]]},"properties":{"code":"32_인제군","name":"인제군"}},
{"type":"Feature","geometry":{"type":"Polygon","coordinates":[[[128.1254,38.338],[128.0657,38.3108],[127.8866,38.3409],[127.8264,38.3242],[127.8781,38.189],[127.8757,38.1336],[127.9058,38.0482],[127.9385,38.0116],[128.0314,38.0118],[128.1202,38.0451],[128.0903,38.1353],[128.1671,38.3116],[128.1254,38.338]]]},"properties":{"code":"32_양구군","name":"양구군"}},
{"type":"Feature","geometry":{"type":"Polygon","coordinates":[[[127.8264,38.3242],[127.7797,38.3511],[127.6405,38.3264],[127.6123,38.3378],[127.5993,38.2672],[127.5146,38.1967],[127.4845,38.1224],[127.4327,38.1125],[127.4478,38.0482],[127.4601,38.0135],[127.5419,37.9984],[127.5998,38.0777],[127.6546,38.0216],[127.7719,38.0245],[127.7961,37.9904],[127.9058,38.0482],[127.8757,38.1336],[127.8781,38.189],[127.8264,38.3242]]]},"properties":{"code":"32_화천군","name":"화천군"}},
{"type":"Feature","geometry":{"type":"Polygon","coordinates":[[[127.6123,38.3378],[127.5106,38.3011],[127.3901,38.3373],[127.3128,38.3142],[127.2457,38.336],[127.1114,38.2893],[127.1815,38.1819],[127.2779,38.1345],[127.3233,38.0925],[127.4327,38.1125],[127.4845,38.1224],[127.5146,38.1967],[127.5993,38.2672],[127.6123,38.3378]]]},"properties":{"code":"32_철원군","name":"철원군"}},
{"type":"Feature","geometry":{"type":"Polygon","coordinates":[[[128.9754,37.5312],[128.9079,37.5497],[128.8502,37.5122],[128.6763,37.5531],[128.592,37.5577],[128.5655,37.4585],[128.5265,37.4607],[128.582,37.2961],[128.5771,37.2662],[128.58,37.2198],[128.6452,37.1799],[128.7524,37.2093],[128.9014,37.1451],[128.9104,37.2135],[128.8758,37.3194],[128.8481,37.3368],[128.9001,37.427],[128.9599,37.4439],[128.9901,37.4722],[128.9754,37.5312]]]},"properties":{"code":"32_정선군","name":"정선군"}},
{"type":"Feature","geometry":{"type":"Polygon","coordinates":[[[128.6763,37.5531],[128.7388,37.6072],[128.7669,37.669],[128.7101,37.766],[128.6039,37.7672],[128.5848,37.8182],[128.5233,37.756],[128.4177,37.6853],[128.3074,37.6881],[128.257,37.6267],[128.3014,37.5088],[128.2478,37.4745],[128.2679,37.4052],[128.3192,37.3754],[128.326,37.3149],[128.3992,37.2944],[128.4669,37.3037],[128.5771,37.2662],[128.582,37.2961],[128.5265,37.4607],[128.5655,37.4585],[128.592,37.5577],[128.6763,37.5531]]]},"properties":{"code":"32_평창군","name":"평창군"}},
{"type":"Feature","geometry":{"type":"Polygon","coordinates":[[[128.912,37.064],[128.8767,37.1114],[128.9014,37.1451],[128.7524,37.2093],[128.6452,37.1799],[128.58,37.2198],[128.5771,37.2662],[128.4669,37.3037],[128.3992,37.2944],[128.326,37.3149],[128.3192,37.3754],[128.2679,37.4052],[128.1817,37.3849],[128.1885,37.3385],[128.1163,37.2992],[128.2198,37.2748],[128.2034,37.246],[128.2712,37.2052],[128.3005,37.1313],[128.4032,37.144],[128.4258,37.1096],[128.5146,37.1108],[128.5402,37.0872],[128.6545,37.0626],[128.7112,37.0364],[128.7873,37.0849],[128.8489,37.0493],[128.912,37.064]]]},"properties":{"code":"32_영월군","name":"영월군"}},
{"type":"Feature","geometry":{"type":"Polygon","coordinates":[[[128.257,37.6267],[128.1481,37.6703],[128.0214,37.6105],[127.8946,37.5936],[127.8516,37.5504],[127.7761,37.5033],[127.804,37.4325],[127.8435,37.4296],[127.9351,37.4875],[127.9534,37.452],[128.0616,37.4441],[128.0996,37.4037],[128.0444,37.3543],[128.0593,37.3081],[128.1163,37.2992],[128.1885,37.3385],[128.1817,37.3849],[128.2679,37.4052],[128.2478,37.4745],[128.3014,37.5088],[128.257,37.6267]]]},"properties":{"code":"32_횡성군","name":"횡성군"}},
{"type":"Feature","geometry":{"type":"Polygon","coordinates":[[[128.484,37.8903],[128.3685,37.8444],[128.2959,37.8671],[128.2111,37.8096],[128.1756,37.8822],[128.0822,37.9004],[127.9956,37.9399],[127.9336,37.8238],[127.8247,37.843],[127.8331,37.737],[127.7494,37.7387],[127.6253,37.6885],[127.562,37.7257],[127.5611,37.6257],[127.6045,37.6485],[127.7103,37.5836],[127.7949,37.5825],[127.8516,37.5504],[127.8946,37.5936],[128.0214,37.6105],[128.1481,37.6703],[128.257,37.6267],[128.3074,37.6881],[128.4177,37.6853],[128.5233,37.756],[128.5848,37.8182],[128.5901,37.8591],[128.484,37.8903]]]},"properties":{"code":"32_홍천군","name":"홍천군"}},
{"type":"Feature","geometry":{"type":"Polygon","coordinates":[[[129.3664,37.1435],[129.3592,37.2326],[129.2721,37.3198],[129.2529,37.3782],[129.2002,37.4131],[129.1623,37.4739],[129.1371,37.4503],[128.9599,37.4439],[128.9001,37.427],[128.8481,37.3368],[128.8758,37.3194],[128.9104,37.2135],[128.9656,37.3266],[129.0207,37.3004],[128.9977,37.2303],[129.0296,37.1721],[129.075,37.1666],[129.0981,37.0976],[129.1877,37.0392],[129.2743,37.1141],[129.3664,37.1435]]]},"properties":{"code":"32_삼척시","name":"삼척시"}},
{"type":"Feature","geometry":{"type":"Polygon","coordinates":[[[128.6113,38.1583],[128.5871,38.2284],[128.4888,38.1865],[128.4441,38.1996],[128.4221,38.1748],[128.4676,38.1167],[128.6113,38.1583]]]},"properties":{"code":"32_속초시","name":"속초시"}},
{"type":"Feature","geometry":{"type":"Polygon","coordinates":[[[129.0981,37.0976],[129.075,37.1666],[129.0296,37.1721],[128.9977,37.2303],[129.0207,37.3004],[128.9656,37.3266],[128.9104,37.2135],[128.9014,37.1451],[128.8767,37.1114],[128.912,37.064],[128.9246,37.0892],[129.0671,37.0649],[129.0981,37.0976]]]},"properties":{"code":"32_태백시","name":"태백시"}},
{"type":"Feature","geometry":{"type":"Polygon","coordinates":[[[128.9599,37.4439],[129.1371,37.4503],[129.1623,37.4739],[129.0753,37.6033],[129.0403,37.5467],[128.9754,37.5312],[128.9901,37.4722],[128.9599,37.4439]]]},"properties":{"code":"32_동해시","name":"동해시"}},
{"type":"Feature","geometry":{"type":"Polygon","coordinates":[[[128.5901,37.8591],[128.5848,37.8182],[128.6039,37.7672],[128.7101,37.766],[128.7669,37.669],[128.7388,37.6072],[128.6763,37.5531],[128.8502,37.5122],[128.9079,37.5497],[128.9754,37.5312],[129.0403,37.5467],[129.0753,37.6033],[129.0588,37.673],[128.8816,37.8269],[128.8123,37.9156],[128.5901,37.8591]]]},"properties":{"code":"32_강릉시","name":"강릉시"}},
{"type":"Feature","geometry":{"type":"Polygon","coordinates":[[[128.2034,37.246],[128.2198,37.2748],[128.1163,37.2992],[128.0593,37.3081],[128.0444,37.3543],[128.0996,37.4037],[128.0616,37.4441],[127.9534,37.452],[127.9351,37.4875],[127.8435,37.4296],[127.804,37.4325],[127.7617,37.3642],[127.7501,37.2138],[127.7914,37.1417],[127.9284,37.1623],[127.9235,37.2229],[127.9872,37.2553],[128.0417,37.186],[128.2034,37.246]]]},"properties":{"code":"32_원주시","name":"원주시"}},
{"type":"Feature","geometry":{"type":"Polygon","coordinates":[[[128.0314,38.0118],[127.9385,38.0116],[127.9058,38.0482],[127.7961,37.9904],[127.7719,38.0245],[127.6546,38.0216],[127.5998,38.0777],[127.5419,37.9984],[127.6052,37.9523],[127.6199,37.9038],[127.5347,37.8391],[127.5237,37.7886],[127.562,37.7257],[127.6253,37.6885],[127.7494,37.7387],[127.8331,37.737],[127.8247,37.843],[127.9336,37.8238],[127.9956,37.9399],[127.9854,37.9878],[128.0314,38.0118]]]},"properties":{"code":"32_춘천시","name":"춘천시"}},
{"type":"Feature","geometry":{"type":"Polygon","coordinates":[[[127.8516,37.5504],[127.7949,37.5825],[127.7103,37.5836],[127.6045,37.6485],[127.5611,37.6257],[127.5637,37.5843],[127.4769,37.5744],[127.4272,37.6628],[127.3733,37.6454],[127.3092,37.5136],[127.3663,37.5272],[127.4028,37.4186],[127.425,37.4367],[127.5391,37.4085],[127.6053,37.417],[127.7035,37.3711],[127.7617,37.3642],[127.804,37.4325],[127.7761,37.5033],[127.8516,37.5504]]]},"properties":{"code":"31_양평군","name":"양평군"}},
{"type":"Feature","geometry":{"type":"Polygon","coordinates":[[[127.4478,38.0482],[127.3259,37.8709],[127.2902,37.8672],[127.2687,37.7777],[127.3207,37.7645],[127.3813,37.6718],[127.3733,37.6454],[127.4272,37.6628],[127.4769,37.5744],[127.5637,37.5843],[127.5611,37.6257],[127.562,37.7257],[127.5237,37.7886],[127.5347,37.8391],[127.6199,37.9038],[127.6052,37.9523],[127.5419,37.9984],[127.4601,38.0135],[127.4478,38.0482]]]},"properties":{"code":"31_가평군","name":"가평군"}},
{"type":"Feature","geometry":{"type":"Polygon","coordinates":[[[127.1114,38.2893],[126.9929,38.2341],[126.9861,38.2094],[126.8279,38.1955],[126.7501,38.1251],[126.7982,38.0794],[126.8954,38.0716],[126.8746,38.0158],[126.803,37.9893],[126.8976,37.9684],[126.9717,38.0006],[126.9755,37.9393],[127.0122,37.9248],[127.0938,37.9687],[127.1498,37.9941],[127.1144,38.0482],[127.1888,38.062],[127.1815,38.1819],[127.1114,38.2893]]]},"properties":{"code":"31_연천군","name":"연천군"}},
{"type":"Feature","geometry":{"type":"Polygon","coordinates":[[[127.6976,37.1376],[127.7501,37.2138],[127.7617,37.3642],[127.7035,37.3711],[127.6053,37.417],[127.5391,37.4085],[127.425,37.4367],[127.4028,37.4186],[127.4446,37.3556],[127.5157,37.3366],[127.5289,37.1706],[127.5999,37.1855],[127.6309,37.1509],[127.6976,37.1376]]]},"properties":{"code":"31_여주시","name":"여주시"}},
{"type":"Feature","geometry":{"type":"Polygon","coordinates":[[[127.4327,38.1125],[127.3233,38.0925],[127.2779,38.1345],[127.1815,38.1819],[127.1888,38.062],[127.1144,38.0482],[127.1498,37.9941],[127.0938,37.9687],[127.1241,37.9137],[127.1113,37.8571],[127.1065,37.7769],[127.1488,37.7521],[127.2272,37.7507],[127.2687,37.7777],[127.2902,37.8672],[127.3259,37.8709],[127.4478,38.0482],[127.4327,38.1125]]]},"properties":{"code":"31_포천시","name":"포천시"}},
{"type":"Feature","geometry":{"type":"Polygon","coordinates":[[[126.9755,37.9393],[126.9073,37.7906],[126.9318,37.7458],[126.9229,37.6691],[126.9938,37.6767],[127.0104,37.6819],[127.018,37.6982],[127.0043,37.7379],[127.1065,37.7769],[127.1113,37.8571],[127.0625,37.8666],[127.0122,37.9248],[126.9755,37.9393]]]},"properties":{"code":"31_양주시","name":"양주시"}},
{"type":"Feature","geometry":{"type":"Polygon","coordinates":[[[127.3092,37.5136],[127.2897,37.5107],[127.2389,37.4724],[127.1832,37.4705],[127.1764,37.4026],[127.1385,37.3368],[127.144,37.3335],[127.2307,37.3561],[127.2671,37.3399],[127.2838,37.2659],[127.3409,37.2677],[127.3783,37.3179],[127.4446,37.3556],[127.4028,37.4186],[127.3663,37.5272],[127.3092,37.5136]]]},"properties":{"code":"31_광주시","name":"광주시"}},
{"type":"Feature","geometry":{"type":"Polygon","coordinates":[[[126.9295,37.276],[126.8464,37.2643],[126.8125,37.2776],[126.6666,37.234],[126.6627,37.1593],[126.6905,37.1133],[126.7708,37.1251],[126.7531,37.0264],[126.799,37.0092],[126.8401,37.0108],[126.9029,37.0672],[126.9867,37.0688],[127.0375,37.1334],[127.0666,37.1959],[127.1058,37.1407],[127.1248,37.1417],[127.1537,37.2157],[127.0688,37.2373],[127.0418,37.2407],[126.9749,37.2259],[126.9295,37.276]]]},"properties":{"code":"31_화성시","name":"화성시"}},
{"type":"Feature","geometry":{"type":"Polygon","coordinates":[[[126.6786,37.6973],[126.6691,37.7817],[126.5281,37.7353],[126.531,37.6502],[126.5746,37.585],[126.6592,37.6352],[126.7272,37.5892],[126.7958,37.5788],[126.807,37.6012],[126.7761,37.6194],[126.743,37.6361],[126.6786,37.6973]]]},"properties":{"code":"31_김포시","name":"김포시"}},
{"type":"Feature","geometry":{"type":"Polygon","coordinates":[[[127.2919,36.8909],[127.3113,36.9262],[127.404,36.9649],[127.4488,37.0082],[127.4921,37.05],[127.5051,37.1154],[127.432,37.1449],[127.4013,37.0925],[127.2524,37.1422],[127.1974,37.0862],[127.1252,37.0885],[127.1552,37.0266],[127.1216,36.9663],[127.204,36.9492],[127.2919,36.8909]]]},"properties":{"code":"31_안성시","name":"안성시"}},
{"type":"Feature","geometry":{"type":"Polygon","coordinates":[[[127.6309,37.1509],[127.5999,37.1855],[127.5289,37.1706],[127.5157,37.3366],[127.4446,37.3556],[127.3783,37.3179],[127.3409,37.2677],[127.3319,37.2188],[127.432,37.1449],[127.5051,37.1154],[127.4921,37.05],[127.5683,37.0602],[127.6333,37.0934],[127.6309,37.1509]]]},"properties":{"code":"31_이천시","name":"이천시"}},
{"type":"Feature","geometry":{"type":"Polygon","coordinates":[[[126.803,37.9893],[126.675,37.9527],[126.6935,37.8644],[126.6691,37.7817],[126.6786,37.6973],[126.7764,37.7019],[126.8377,37.7253],[126.9318,37.7458],[126.9073,37.7906],[126.9755,37.9393],[126.9717,38.0006],[126.8976,37.9684],[126.803,37.9893]]]},"properties":{"code":"31_파주시","name":"파주시"}},
{"type":"Feature","geometry":{"type":"Polygon","coordinates":[[[127.1385,37.3368],[127.03,37.3693],[127.0209,37.3487],[127.042,37.3185],[127.092,37.2956],[127.0688,37.2373],[127.1537,37.2157],[127.1248,37.1417],[127.1252,37.0885],[127.1974,37.0862],[127.2524,37.1422],[127.4013,37.0925],[127.432,37.1449],[127.3319,37.2188],[127.3409,37.2677],[127.2838,37.2659],[127.2671,37.3399],[127.2307,37.3561],[127.144,37.3335],[127.1385,37.3368]]]},"properties":{"code":"31_용인시","name":"용인시"}},
{"type":"Feature","geometry":{"type":"Polygon","coordinates":[[[127.2897,37.5107],[127.2014,37.5883],[127.1668,37.5767],[127.1467,37.5142],[127.1421,37.4709],[127.1781,37.4694],[127.1832,37.4705],[127.2389,37.4724],[127.2897,37.5107]]]},"properties":{"code":"31_하남시","name":"하남시"}},
{"type":"Feature","geometry":{"type":"Polygon","coordinates":[[[127.03,37.3693],[127.0458,37.4014],[127.0438,37.4128],[126.9847,37.3979],[126.9642,37.3587],[126.9325,37.3042],[126.935,37.3002],[126.9663,37.2999],[127.0209,37.3487],[127.03,37.3693]]]},"properties":{"code":"31_의왕시","name":"의왕시"}},
{"type":"Feature","geometry":{"type":"Polygon","coordinates":[[[126.9642,37.3587],[126.9429,37.3763],[126.8993,37.3552],[126.9325,37.3042],[126.9642,37.3587]]]},"properties":{"code":"31_군포시","name":"군포시"}},
{"type":"Feature","geometry":{"type":"Polygon","coordinates":[[[126.7802,37.469],[126.7386,37.3926],[126.6945,37.3311],[126.7249,37.3106],[126.8428,37.3609],[126.884,37.3734],[126.8791,37.3992],[126.8281,37.4566],[126.7802,37.469]]]},"properties":{"code":"31_시흥시","name":"시흥시"}},
{"type":"Feature","geometry":{"type":"Polygon","coordinates":[[[127.0375,37.1334],[127.1058,37.1407],[127.0666,37.1959],[127.0375,37.1334]]]},"properties":{"code":"31_오산시","name":"오산시"}},
{"type":"Feature","geometry":{"type":"Polygon","coordinates":[[[127.3733,37.6454],[127.3813,37.6718],[127.3207,37.7645],[127.2687,37.7777],[127.2272,37.7507],[127.1488,37.7521],[127.0839,37.6936],[127.1133,37.6396],[127.1668,37.5767],[127.2014,37.5883],[127.2897,37.5107],[127.3092,37.5136],[127.3733,37.6454]]]},"properties":{"code":"31_남양주시","name":"남양주시"}},
{"type":"Feature","geometry":{"type":"Polygon","coordinates":[[[127.1133,37.6396],[127.1078,37.618],[127.103,37.5708],[127.1152,37.5575],[127.1668,37.5767],[127.1133,37.6396]]]},"properties":{"code":"31_구리시","name":"구리시"}},
{"type":"Feature","geometry":{"type":"Polygon","coordinates":[[[127.0438,37.4128],[127.0496,37.4281],[126.9907,37.4553],[126.9652,37.4382],[126.9847,37.3979],[127.0438,37.4128]]]},"properties":{"code":"31_과천시","name":"과천시"}},
{"type":"Feature","geometry":{"type":"Polygon","coordinates":[[[126.6786,37.6973],[126.743,37.6361],[126.7761,37.6194],[126.807,37.6012],[126.8598,37.5718],[126.8843,37.5881],[126.9146,37.6415],[126.9739,37.6295],[126.9772,37.6286],[126.9867,37.6338],[126.9938,37.6767],[126.9229,37.6691],[126.9318,37.7458],[126.8377,37.7253],[126.7764,37.7019],[126.6786,37.6973]]]},"properties":{"code":"31_고양시","name":"고양시"}},
{"type":"Feature","geometry":{"type":"Polygon","coordinates":[[[126.7249,37.3106],[126.8184,37.2952],[126.8464,37.2643],[126.9295,37.276],[126.935,37.3002],[126.9325,37.3042],[126.8993,37.3552],[126.884,37.3734],[126.8428,37.3609],[126.7249,37.3106]]]},"properties":{"code":"31_안산시","name":"안산시"}},
{"type":"Feature","geometry":{"type":"Polygon","coordinates":[[[127.0122,37.9248],[127.0625,37.8666],[127.1113,37.8571],[127.1241,37.9137],[127.0938,37.9687],[127.0122,37.9248]]]},"properties":{"code":"31_동두천시","name":"동두천시"}},
{"type":"Feature","geometry":{"type":"Polygon","coordinates":[[[127.076,36.9355],[127.1216,36.9663],[127.1552,37.0266],[127.1252,37.0885],[127.1248,37.1417],[127.1058,37.1407],[127.0375,37.1334],[126.9867,37.0688],[126.9029,37.0672],[126.8401,37.0108],[126.799,37.0092],[126.9108,36.9021],[126.9975,36.9326],[127.076,36.9355]]]},"properties":{"code":"31_평택시","name":"평택시"}},
{"type":"Feature","geometry":{"type":"Polygon","coordinates":[[[126.8791,37.3992],[126.9026,37.4345],[126.8768,37.4826],[126.8355,37.4741],[126.8281,37.4566],[126.8791,37.3992]]]},"properties":{"code":"31_광명시","name":"광명시"}},
{"type":"Feature","geometry":{"type":"Polygon","coordinates":[[[126.7698,37.5514],[126.7624,37.5213],[126.7624,37.5152],[126.7445,37.4857],[126.7698,37.469],[126.7802,37.469],[126.8281,37.4566],[126.8355,37.4741],[126.8226,37.4878],[126.825,37.503],[126.8269,37.5055],[126.8242,37.5379],[126.7698,37.5514]]]},"properties":{"code":"31_부천시","name":"부천시"}},
{"type":"Feature","geometry":{"type":"Polygon","coordinates":[[[126.9847,37.3979],[126.9652,37.4382],[126.95,37.4361],[126.9308,37.4474],[126.9026,37.4345],[126.8791,37.3992],[126.884,37.3734],[126.8993,37.3552],[126.9429,37.3763],[126.9642,37.3587],[126.9847,37.3979]]]},"properties":{"code":"31_안양시","name":"안양시"}},
{"type":"Feature","geometry":{"type":"Polygon","coordinates":[[[127.1065,37.7769],[127.0043,37.7379],[127.018,37.6982],[127.0529,37.6842],[127.0839,37.6936],[127.1488,37.7521],[127.1065,37.7769]]]},"properties":{"code":"31_의정부시","name":"의정부시"}},
{"type":"Feature","geometry":{"type":"Polygon","coordinates":[[[127.1385,37.3368],[127.1764,37.4026],[127.1832,37.4705],[127.1781,37.4694],[127.1421,37.4709],[127.1244,37.4624],[127.0984,37.4586],[127.0496,37.4281],[127.0438,37.4128],[127.0458,37.4014],[127.03,37.3693],[127.1385,37.3368]]]},"properties":{"code":"31_성남시","name":"성남시"}},
{"type":"Feature","geometry":{"type":"Polygon","coordinates":[[[127.0688,37.2373],[127.092,37.2956],[127.042,37.3185],[127.0209,37.3487],[126.9663,37.2999],[126.935,37.3002],[126.9295,37.276],[126.9749,37.2259],[127.0418,37.2407],[127.0688,37.2373]]]},"properties":{"code":"31_수원시","name":"수원시"}},
{"type":"Feature","geometry":{"type":"Polygon","coordinates":[[[127.2844,36.4116],[127.3289,36.419],[127.3978,36.4887],[127.3747,36.5572],[127.3102,36.5806],[127.2813,36.6322],[127.2877,36.688],[127.1655,36.7307],[127.1527,36.6175],[127.1959,36.5619],[127.1729,36.5089],[127.2035,36.439],[127.2844,36.4116]]]},"properties":{"code":"29_세종시","name":"세종시"}},
{"type":"Feature","geometry":{"type":"Polygon","coordinates":[[[129.2052,35.3848],[129.2676,35.3834],[129.3068,35.3264],[129.3613,35.3525],[129.338,35.4794],[129.2674,35.5542],[129.2924,35.5918],[129.2981,35.6413],[129.2095,35.7185],[129.0911,35.6991],[129.0496,35.6471],[129.0056,35.6171],[128.9968,35.5259],[129.109,35.4917],[129.2052,35.3848]]]},"properties":{"code":"26_울주군","name":"울주군"}},
{"type":"Feature","geometry":{"type":"Polygon","coordinates":[[[129.2981,35.6413],[129.2924,35.5918],[129.3563,35.545],[129.3911,35.5165],[129.4551,35.5696],[129.4523,35.6479],[129.3563,35.6767],[129.2981,35.6413]]]},"properties":{"code":"26_북구","name":"북구"}},
{"type":"Feature","geometry":{"type":"Polygon","coordinates":[[[129.3911,35.5165],[129.3931,35.4962],[129.4416,35.4825],[129.4551,35.5696],[129.3911,35.5165]]]},"properties":{"code":"26_동구","name":"동구"}},
{"type":"Feature","geometry":{"type":"Polygon","coordinates":[[[129.338,35.4794],[129.3931,35.4962],[129.3911,35.5165],[129.3563,35.545],[129.2674,35.5542],[129.338,35.4794]]]},"properties":{"code":"26_남구","name":"남구"}},
{"type":"Feature","geometry":{"type":"Polygon","coordinates":[[[129.2674,35.5542],[129.3563,35.545],[129.2924,35.5918],[129.2674,35.5542]]]},"properties":{"code":"26_중구","name":"중구"}},
{"type":"Feature","geometry":{"type":"Polygon","coordinates":[[[127.4047,36.4528],[127.3971,36.3697],[127.405,36.3471],[127.4149,36.3408],[127.468,36.3575],[127.4913,36.4298],[127.4047,36.4528]]]},"properties":{"code":"25_대덕구","name":"대덕구"}},
{"type":"Feature","geometry":{"type":"Polygon","coordinates":[[[127.2939,36.2612],[127.3512,36.3469],[127.3971,36.3697],[127.4047,36.4528],[127.3978,36.4887],[127.3289,36.419],[127.2844,36.4116],[127.2619,36.3243],[127.2939,36.2612]]]},"properties":{"code":"25_유성구","name":"유성구"}},
{"type":"Feature","geometry":{"type":"Polygon","coordinates":[[[127.3745,36.2692],[127.405,36.3471],[127.3971,36.3697],[127.3512,36.3469],[127.2939,36.2612],[127.2802,36.2411],[127.3335,36.1814],[127.3745,36.2692]]]},"properties":{"code":"25_서구","name":"서구"}},
{"type":"Feature","geometry":{"type":"Polygon","coordinates":[[[127.4245,36.2053],[127.4446,36.236],[127.4149,36.3408],[127.405,36.3471],[127.3745,36.2692],[127.4245,36.2053]]]},"properties":{"code":"25_중구","name":"중구"}},
{"type":"Feature","geometry":{"type":"Polygon","coordinates":[[[127.4949,36.2351],[127.5034,36.3304],[127.5563,36.3918],[127.5178,36.4194],[127.4913,36.4298],[127.468,36.3575],[127.4149,36.3408],[127.4446,36.236],[127.4245,36.2053],[127.4949,36.2351]]]},"properties":{"code":"25_동구","name":"동구"}},
{"type":"Feature","geometry":{"type":"Polygon","coordinates":[[[126.6552,35.1893],[126.6573,35.112],[126.7423,35.1037],[126.7729,35.0669],[126.805,35.0894],[126.8408,35.1753],[126.8385,35.226],[126.7576,35.2313],[126.6552,35.1893]]]},"properties":{"code":"24_광산구","name":"광산구"}},
{"type":"Feature","geometry":{"type":"Polygon","coordinates":[[[126.8385,35.226],[126.8408,35.1753],[126.9093,35.1484],[126.9996,35.1115],[127.0125,35.1307],[126.9345,35.2374],[126.8816,35.2484],[126.8385,35.226]]]},"properties":{"code":"24_북구","name":"북구"}},
{"type":"Feature","geometry":{"type":"Polygon","coordinates":[[[126.9213,35.0885],[126.912,35.1459],[126.8898,35.1139],[126.805,35.0894],[126.7729,35.0669],[126.821,35.0494],[126.8941,35.0751],[126.9213,35.0885]]]},"properties":{"code":"24_남구","name":"남구"}},
{"type":"Feature","geometry":{"type":"Polygon","coordinates":[[[126.805,35.0894],[126.8898,35.1139],[126.912,35.1459],[126.9093,35.1484],[126.8408,35.1753],[126.805,35.0894]]]},"properties":{"code":"24_서구","name":"서구"}},
{"type":"Feature","geometry":{"type":"Polygon","coordinates":[[[126.9996,35.1115],[126.9093,35.1484],[126.912,35.1459],[126.9213,35.0885],[126.9996,35.1115]]]},"properties":{"code":"24_동구","name":"동구"}},
{"type":"Feature","geometry":{"type":"Polygon","coordinates":[[[124.6875,37.9788],[124.6133,37.9578],[124.6388,37.9208],[124.6976,37.9133],[124.6875,37.9788]]]},"properties":{"code":"23_옹진군","name":"옹진군"}},
{"type":"Feature","geometry":{"type":"Polygon","coordinates":[[[126.5281,37.7353],[126.5101,37.7805],[126.4387,37.8285],[126.351,37.7892],[126.3544,37.703],[126.4071,37.648],[126.4058,37.5913],[126.5495,37.602],[126.531,37.6502],[126.5281,37.7353]]]},"properties":{"code":"23_강화군","name":"강화군"}},
{"type":"Feature","geometry":{"type":"Polygon","coordinates":[[[126.5746,37.585],[126.643,37.4928],[126.6726,37.474],[126.6861,37.4705],[126.6926,37.5208],[126.7272,37.5892],[126.6592,37.6352],[126.5746,37.585]]]},"properties":{"code":"23_서구","name":"서구"}},
{"type":"Feature","geometry":{"type":"Polygon","coordinates":[[[126.7272,37.5892],[126.6926,37.5208],[126.7624,37.5213],[126.7698,37.5514],[126.7958,37.5788],[126.7272,37.5892]]]},"properties":{"code":"23_계양구","name":"계양구"}},
{"type":"Feature","geometry":{"type":"Polygon","coordinates":[[[126.7624,37.5213],[126.6926,37.5208],[126.6861,37.4705],[126.6881,37.4692],[126.7698,37.469],[126.7445,37.4857],[126.7624,37.5152],[126.7624,37.5213]]]},"properties":{"code":"23_부평구","name":"부평구"}},
{"type":"Feature","geometry":{"type":"Polygon","coordinates":[[[126.7802,37.469],[126.7698,37.469],[126.6881,37.4692],[126.7044,37.4361],[126.7198,37.3783],[126.7386,37.3926],[126.7802,37.469]]]},"properties":{"code":"23_남동구","name":"남동구"}},
{"type":"Feature","geometry":{"type":"Polygon","coordinates":[[[126.7044,37.4361],[126.6367,37.4282],[126.6129,37.4271],[126.6194,37.34],[126.7198,37.3783],[126.7044,37.4361]]]},"properties":{"code":"23_연수구","name":"연수구"}},
{"type":"Feature","geometry":{"type":"Polygon","coordinates":[[[126.6726,37.474],[126.6449,37.4657],[126.6367,37.4282],[126.7044,37.4361],[126.6881,37.4692],[126.6861,37.4705],[126.6726,37.474]]]},"properties":{"code":"23_남구","name":"남구"}},
{"type":"Feature","geometry":{"type":"Polygon","coordinates":[[[126.643,37.4928],[126.6188,37.4808],[126.6449,37.4657],[126.6726,37.474],[126.643,37.4928]]]},"properties":{"code":"23_동구","name":"동구"}},
{"type":"Feature","geometry":{"type":"MultiPolygon","coordinates":[[[[126.6367,37.4282],[126.6449,37.4657],[126.6188,37.4808],[126.6129,37.4271],[126.6367,37.4282]]],[[[126.5806,37.4985],[126.5004,37.5291],[126.3755,37.4693],[126.4217,37.4187],[126.5692,37.4773],[126.5806,37.4985]]]]},"properties":{"code":"23_중구","name":"중구"}},
{"type":"Feature","geometry":{"type":"MultiPolygon","coordinates":[[[[128.5286,35.6794],[128.5823,35.7361],[128.6253,35.7004],[128.6966,35.7409],[128.6848,35.7869],[128.5929,35.8068],[128.5879,35.8047],[128.5564,35.7699],[128.4827,35.8147],[128.4225,35.8063],[128.3886,35.7603],[128.4347,35.7224],[128.373,35.6081],[128.5073,35.636],[128.5286,35.6794]]],[[[128.3959,35.88],[128.3923,35.8474],[128.4729,35.83],[128.5214,35.8666],[128.5282,35.8859],[128.5064,35.8876],[128.4203,35.9183],[128.3959,35.88]]]]},"properties":{"code":"22_달성군","name":"달성군"}},
{"type":"Feature","geometry":{"type":"Polygon","coordinates":[[[128.4827,35.8147],[128.5564,35.7699],[128.5879,35.8047],[128.5768,35.8571],[128.5764,35.8597],[128.5214,35.8666],[128.4729,35.83],[128.4827,35.8147]]]},"properties":{"code":"22_달서구","name":"달서구"}},
{"type":"Feature","geometry":{"type":"Polygon","coordinates":[[[128.7284,35.8541],[128.617,35.8652],[128.6107,35.8519],[128.5929,35.8068],[128.6848,35.7869],[128.7284,35.8541]]]},"properties":{"code":"22_수성구","name":"수성구"}},
{"type":"Feature","geometry":{"type":"Polygon","coordinates":[[[128.5064,35.8876],[128.5282,35.8859],[128.5824,35.8761],[128.6126,35.8719],[128.6337,35.8915],[128.6061,35.9855],[128.5585,35.9676],[128.5064,35.8876]]]},"properties":{"code":"22_북구","name":"북구"}},
{"type":"Feature","geometry":{"type":"Polygon","coordinates":[[[128.5929,35.8068],[128.6107,35.8519],[128.5768,35.8571],[128.5879,35.8047],[128.5929,35.8068]]]},"properties":{"code":"22_남구","name":"남구"}},
{"type":"Feature","geometry":{"type":"Polygon","coordinates":[[[128.5214,35.8666],[128.5764,35.8597],[128.5824,35.8761],[128.5282,35.8859],[128.5214,35.8666]]]},"properties":{"code":"22_서구","name":"서구"}},
{"type":"Feature","geometry":{"type":"Polygon","coordinates":[[[128.6061,35.9855],[128.6337,35.8915],[128.6126,35.8719],[128.617,35.8652],[128.7284,35.8541],[128.7654,35.8809],[128.7374,35.9899],[128.6975,36.0133],[128.6428,36.0076],[128.6061,35.9855]]]},"properties":{"code":"22_동구","name":"동구"}},
{"type":"Feature","geometry":{"type":"Polygon","coordinates":[[[128.5768,35.8571],[128.6107,35.8519],[128.617,35.8652],[128.6126,35.8719],[128.5824,35.8761],[128.5764,35.8597],[128.5768,35.8571]]]},"properties":{"code":"22_중구","name":"중구"}},
{"type":"Feature","geometry":{"type":"Polygon","coordinates":[[[129.1112,35.302],[129.1466,35.2477],[129.2102,35.1789],[129.2557,35.2436],[129.2676,35.316],[129.3068,35.3264],[129.2676,35.3834],[129.2052,35.3848],[129.1506,35.3611],[129.1112,35.302]]]},"properties":{"code":"21_기장군","name":"기장군"}},
{"type":"Feature","geometry":{"type":"Polygon","coordinates":[[[129.0234,35.1847],[128.9904,35.1942],[128.9591,35.1242],[129.0002,35.1195],[129.0136,35.1351],[129.0234,35.1847]]]},"properties":{"code":"21_사상구","name":"사상구"}},
{"type":"Feature","geometry":{"type":"Polygon","coordinates":[[[129.1178,35.1847],[129.1174,35.1801],[129.0971,35.1587],[129.1141,35.1324],[129.133,35.1446],[129.1178,35.1847]]]},"properties":{"code":"21_수영구","name":"수영구"}},
{"type":"Feature","geometry":{"type":"Polygon","coordinates":[[[129.1174,35.1801],[129.0499,35.1911],[129.0852,35.1552],[129.0971,35.1587],[129.1174,35.1801]]]},"properties":{"code":"21_연제구","name":"연제구"}},
{"type":"Feature","geometry":{"type":"Polygon","coordinates":[[[128.825,35.0957],[128.9234,35.0834],[128.9591,35.1242],[128.9904,35.1942],[128.9999,35.2313],[128.8864,35.2106],[128.8456,35.1549],[128.7959,35.154],[128.825,35.0957]]]},"properties":{"code":"21_강서구","name":"강서구"}},
{"type":"Feature","geometry":{"type":"Polygon","coordinates":[[[129.0528,35.277],[129.0625,35.2231],[129.1123,35.207],[129.1466,35.2477],[129.1112,35.302],[129.0528,35.277]]]},"properties":{"code":"21_금정구","name":"금정구"}},
{"type":"Feature","geometry":{"type":"Polygon","coordinates":[[[128.9591,35.1242],[128.9234,35.0834],[129.0067,35.0754],[129.0002,35.1195],[128.9591,35.1242]]]},"properties":{"code":"21_사하구","name":"사하구"}},
{"type":"Feature","geometry":{"type":"Polygon","coordinates":[[[129.1466,35.2477],[129.1123,35.207],[129.1178,35.1847],[129.133,35.1446],[129.2102,35.1789],[129.1466,35.2477]]]},"properties":{"code":"21_해운대구","name":"해운대구"}},
{"type":"Feature","geometry":{"type":"Polygon","coordinates":[[[129.0149,35.2702],[128.9999,35.2313],[128.9904,35.1942],[129.0234,35.1847],[129.0461,35.1953],[129.0625,35.2231],[129.0528,35.277],[129.0149,35.2702]]]},"properties":{"code":"21_북구","name":"북구"}},
{"type":"Feature","geometry":{"type":"Polygon","coordinates":[[[129.0971,35.1587],[129.0852,35.1552],[129.0667,35.1383],[129.0676,35.1265],[129.1141,35.1324],[129.0971,35.1587]]]},"properties":{"code":"21_남구","name":"남구"}},
{"type":"Feature","geometry":{"type":"Polygon","coordinates":[[[129.1178,35.1847],[129.1123,35.207],[129.0625,35.2231],[129.0461,35.1953],[129.0499,35.1911],[129.1174,35.1801],[129.1178,35.1847]]]},"properties":{"code":"21_동래구","name":"동래구"}},
{"type":"Feature","geometry":{"type":"Polygon","coordinates":[[[129.0136,35.1351],[129.0264,35.1309],[129.0667,35.1383],[129.0852,35.1552],[129.0499,35.1911],[129.0461,35.1953],[129.0234,35.1847],[129.0136,35.1351]]]},"properties":{"code":"21_부산진구","name":"부산진구"}},
{"type":"Feature","geometry":{"type":"Polygon","coordinates":[[[129.0418,35.0921],[129.0389,35.0916],[129.0371,35.082],[129.0854,35.0472],[129.0811,35.0819],[129.0418,35.0921]]]},"properties":{"code":"21_영도구","name":"영도구"}},
{"type":"Feature","geometry":{"type":"Polygon","coordinates":[[[129.0667,35.1383],[129.0264,35.1309],[129.0284,35.1137],[129.045,35.1076],[129.0676,35.1265],[129.0667,35.1383]]]},"properties":{"code":"21_동구","name":"동구"}},
{"type":"Feature","geometry":{"type":"Polygon","coordinates":[[[129.0002,35.1195],[129.0067,35.0754],[129.0285,35.0926],[129.0284,35.1137],[129.0264,35.1309],[129.0136,35.1351],[129.0002,35.1195]]]},"properties":{"code":"21_서구","name":"서구"}},
{"type":"Feature","geometry":{"type":"Polygon","coordinates":[[[129.0418,35.0921],[129.045,35.1076],[129.0284,35.1137],[129.0285,35.0926],[129.0389,35.0916],[129.0418,35.0921]]]},"properties":{"code":"21_중구","name":"중구"}},
{"type":"Feature","geometry":{"type":"Polygon","coordinates":[[[127.1668,37.5767],[127.1152,37.5575],[127.1117,37.5407],[127.1467,37.5142],[127.1668,37.5767]]]},"properties":{"code":"11_강동구","name":"강동구"}},
{"type":"Feature","geometry":{"type":"Polygon","coordinates":[[[127.1467,37.5142],[127.1117,37.5407],[127.0691,37.5223],[127.1244,37.4624],[127.1421,37.4709],[127.1467,37.5142]]]},"properties":{"code":"11_송파구","name":"송파구"}},
{"type":"Feature","geometry":{"type":"Polygon","coordinates":[[[127.1244,37.4624],[127.0691,37.5223],[127.0587,37.5263],[127.023,37.5323],[127.014,37.525],[127.0559,37.4659],[127.0984,37.4586],[127.1244,37.4624]]]},"properties":{"code":"11_강남구","name":"강남구"}},
{"type":"Feature","geometry":{"type":"Polygon","coordinates":[[[127.0496,37.4281],[127.0984,37.4586],[127.0559,37.4659],[127.014,37.525],[126.9822,37.5093],[126.9837,37.4739],[126.9907,37.4553],[127.0496,37.4281]]]},"properties":{"code":"11_서초구","name":"서초구"}},
{"type":"Feature","geometry":{"type":"Polygon","coordinates":[[[126.9907,37.4553],[126.9837,37.4739],[126.9053,37.4822],[126.9016,37.4775],[126.9308,37.4474],[126.95,37.4361],[126.9652,37.4382],[126.9907,37.4553]]]},"properties":{"code":"11_관악구","name":"관악구"}},
{"type":"Feature","geometry":{"type":"Polygon","coordinates":[[[126.9822,37.5093],[126.9525,37.5172],[126.9053,37.4822],[126.9837,37.4739],[126.9822,37.5093]]]},"properties":{"code":"11_동작구","name":"동작구"}},
{"type":"Feature","geometry":{"type":"Polygon","coordinates":[[[126.9525,37.5172],[126.9457,37.5266],[126.8918,37.5474],[126.8883,37.5408],[126.8816,37.514],[126.9053,37.4822],[126.9525,37.5172]]]},"properties":{"code":"11_영등포구","name":"영등포구"}},
{"type":"Feature","geometry":{"type":"Polygon","coordinates":[[[126.9026,37.4345],[126.9308,37.4474],[126.9016,37.4775],[126.8768,37.4826],[126.9026,37.4345]]]},"properties":{"code":"11_금천구","name":"금천구"}},
{"type":"Feature","geometry":{"type":"Polygon","coordinates":[[[126.8768,37.4826],[126.9016,37.4775],[126.9053,37.4822],[126.8816,37.514],[126.8269,37.5055],[126.825,37.503],[126.8226,37.4878],[126.8355,37.4741],[126.8768,37.4826]]]},"properties":{"code":"11_구로구","name":"구로구"}},
{"type":"Feature","geometry":{"type":"Polygon","coordinates":[[[126.7958,37.5788],[126.7698,37.5514],[126.8242,37.5379],[126.8883,37.5408],[126.8918,37.5474],[126.8598,37.5718],[126.807,37.6012],[126.7958,37.5788]]]},"properties":{"code":"11_강서구","name":"강서구"}},
{"type":"Feature","geometry":{"type":"Polygon","coordinates":[[[126.8269,37.5055],[126.8816,37.514],[126.8883,37.5408],[126.8242,37.5379],[126.8269,37.5055]]]},"properties":{"code":"11_양천구","name":"양천구"}},
{"type":"Feature","geometry":{"type":"Polygon","coordinates":[[[126.8598,37.5718],[126.8918,37.5474],[126.9457,37.5266],[126.9645,37.5487],[126.9636,37.5561],[126.9052,37.5741],[126.8843,37.5881],[126.8598,37.5718]]]},"properties":{"code":"11_마포구","name":"마포구"}},
{"type":"Feature","geometry":{"type":"Polygon","coordinates":[[[126.9636,37.5561],[126.9687,37.5631],[126.9525,37.6051],[126.9052,37.5741],[126.9636,37.5561]]]},"properties":{"code":"11_서대문구","name":"서대문구"}},
{"type":"Feature","geometry":{"type":"Polygon","coordinates":[[[126.8843,37.5881],[126.9052,37.5741],[126.9525,37.6051],[126.9739,37.6295],[126.9146,37.6415],[126.8843,37.5881]]]},"properties":{"code":"11_은평구","name":"은평구"}},
{"type":"Feature","geometry":{"type":"Polygon","coordinates":[[[127.0839,37.6936],[127.0529,37.6842],[127.0436,37.6285],[127.0521,37.6216],[127.0735,37.6128],[127.1078,37.618],[127.1133,37.6396],[127.0839,37.6936]]]},"properties":{"code":"11_노원구","name":"노원구"}},
{"type":"Feature","geometry":{"type":"Polygon","coordinates":[[[127.0104,37.6819],[127.0436,37.6285],[127.0529,37.6842],[127.018,37.6982],[127.0104,37.6819]]]},"properties":{"code":"11_도봉구","name":"도봉구"}},
{"type":"Feature","geometry":{"type":"Polygon","coordinates":[[[126.9938,37.6767],[126.9867,37.6338],[127.0521,37.6216],[127.0436,37.6285],[127.0104,37.6819],[126.9938,37.6767]]]},"properties":{"code":"11_강북구","name":"강북구"}},
{"type":"Feature","geometry":{"type":"Polygon","coordinates":[[[126.9772,37.6286],[127.0253,37.5752],[127.0738,37.604],[127.0735,37.6128],[127.0521,37.6216],[126.9867,37.6338],[126.9772,37.6286]]]},"properties":{"code":"11_성북구","name":"성북구"}},
{"type":"Feature","geometry":{"type":"Polygon","coordinates":[[[127.1078,37.618],[127.0735,37.6128],[127.0738,37.604],[127.0807,37.5691],[127.103,37.5708],[127.1078,37.618]]]},"properties":{"code":"11_중랑구","name":"중랑구"}},
{"type":"Feature","geometry":{"type":"Polygon","coordinates":[[[127.0253,37.5752],[127.0255,37.5689],[127.0742,37.5572],[127.0807,37.5691],[127.0738,37.604],[127.0253,37.5752]]]},"properties":{"code":"11_동대문구","name":"동대문구"}},
{"type":"Feature","geometry":{"type":"Polygon","coordinates":[[[127.103,37.5708],[127.0807,37.5691],[127.0742,37.5572],[127.0587,37.5263],[127.0691,37.5223],[127.1117,37.5407],[127.1152,37.5575],[127.103,37.5708]]]},"properties":{"code":"11_광진구","name":"광진구"}},
{"type":"Feature","geometry":{"type":"Polygon","coordinates":[[[127.0587,37.5263],[127.0742,37.5572],[127.0255,37.5689],[127.0107,37.5412],[127.023,37.5323],[127.0587,37.5263]]]},"properties":{"code":"11_성동구","name":"성동구"}},
{"type":"Feature","geometry":{"type":"Polygon","coordinates":[[[127.023,37.5323],[127.0107,37.5412],[126.9645,37.5487],[126.9457,37.5266],[126.9525,37.5172],[126.9822,37.5093],[127.014,37.525],[127.023,37.5323]]]},"properties":{"code":"11_용산구","name":"용산구"}},
{"type":"Feature","geometry":{"type":"Polygon","coordinates":[[[126.9645,37.5487],[127.0107,37.5412],[127.0255,37.5689],[126.9687,37.5631],[126.9636,37.5561],[126.9645,37.5487]]]},"properties":{"code":"11_중구","name":"중구"}},
{"type":"Feature","geometry":{"type":"Polygon","coordinates":[[[126.9739,37.6295],[126.9525,37.6051],[126.9687,37.5631],[127.0255,37.5689],[127.0253,37.5752],[126.9772,37.6286],[126.9739,37.6295]]]},"properties":{"code":"11_종로구","name":"종로구"}}
]}